{
"type": "FeatureCollection",
"name": "projeteysines",
"crs": { "type": "name", "properties": { "name": "urn:ogc:def:crs:EPSG::3945" } },
"features": [
{ "type": "Feature", "properties": { "fid": 20, "GID": 37.0, "TERRIT_P": "PT_OUEST", "GO_DESCRITION": "amgt liaison douce", "GPOLE_SUIVI_OPE_AMENAGEMENT_EP_COMMUNES": "Bruges", "GPOLE_SUIVI_OPE_AMENAGEMENT_EP_LIBELLE_PROJET": "BRUGE-016 ... Rue Pascal Triat", "GPOLE_SUIVI_OPE_AMENAGEMENT_EP_STATUT_PROJET": "Conception", "GPOLE_SUIVI_OPE_AMENAGEMENT_EP_CHEF_DE_PROJET": "MARCHAND Anne-Laure", "GPOLE_SUIVI_OPE_AMENAGEMENT_EP_DESCRIPTION_PROJET": "Requalification de la rue Pascal Triat dans le cadre du projet de liaison organique portée par la mission 1MA. Objectifs : très forte végétalisation de l'axe + mise en place du réseau REVE (entre allée de Bouléouts et route du Médoc) + évolution du schéma de circulation (mise à sens unique)", "GPOLE_SUIVI_OPE_AMENAGEMENT_EP_TYPE_PROJET": "Amgt EspPublic _ Géné", "GPOLE_SUIVI_OPE_AMENAGEMENT_EP_PROG_FIN_PRINC_SAU": "CODEV", "GPOLE_SUIVI_OPE_AMENAGEMENT_EP_DEBUT_TRAVAUX": 2028.0, "GPOLE_SUIVI_OPE_AMENAGEMENT_EP_FIN_TRAVAUX": 2028.0 }, "geometry": { "type": "MultiLineString", "coordinates": [ [ [ 1414323.603836959926412, 4193196.192677509970963 ], [ 1414296.457032290054485, 4193105.423450869973749 ], [ 1414287.051716249901801, 4193077.579841469880193 ], [ 1414277.544889230048284, 4193050.474903719965369 ], [ 1414272.844853430055082, 4193040.507255650125444 ], [ 1414267.801197119988501, 4193033.469217029865831 ], [ 1414258.76438001007773, 4193024.674180380068719 ], [ 1414239.657760689966381, 4193009.277060079853982 ], [ 1414239.327735020080581, 4193009.029124500229955 ], [ 1414218.905364779988304, 4192993.686583740171045 ], [ 1414182.19620178011246, 4192968.598291529808193 ], [ 1414166.777266720077023, 4192957.508053009863943 ], [ 1414154.816788059892133, 4192948.243179489858449 ], [ 1414147.642535140039399, 4192941.845491790212691 ], [ 1414135.893505099928007, 4192930.235346110071987 ], [ 1414115.667343799956143, 4192906.790988179855049 ], [ 1414082.186978640034795, 4192865.319146640133113 ], [ 1414006.405541409971192, 4192789.422013570088893 ], [ 1414007.334370250115171, 4192788.190670140087605 ], [ 1414006.405541409971192, 4192789.422013570088893 ], [ 1413995.575149969896302, 4192779.97340160002932 ], [ 1413946.0275981600862, 4192731.890630379784852 ], [ 1413916.504572999896482, 4192705.203178879804909 ], [ 1413916.742882309947163, 4192704.948518400080502 ] ] ] } },
{ "type": "Feature", "properties": { "fid": 26, "GID": 44.0, "TERRIT_P": "PT_OUEST", "GO_DESCRITION": "amgt general", "GPOLE_SUIVI_OPE_AMENAGEMENT_EP_COMMUNES": "Eysines", "GPOLE_SUIVI_OPE_AMENAGEMENT_EP_LIBELLE_PROJET": "EYSIN-004a ... Avenue du Médoc  (entre la rocade et Cantinolle)", "GPOLE_SUIVI_OPE_AMENAGEMENT_EP_STATUT_PROJET": "Conception", "GPOLE_SUIVI_OPE_AMENAGEMENT_EP_CHEF_DE_PROJET": "FALGERE Eric", "GPOLE_SUIVI_OPE_AMENAGEMENT_EP_DESCRIPTION_PROJET": "L'Avenue du Médoc à Eysines (ex RD2215) relie le carrefour de Cantinolle à l'ouest (avec la RD1 et la RD1215) à l'échangeur 7 de la rocade côté Est = 3300m\n. Le réaménagement du carrefour de Cantinolle jusqu'à l'avenue de l'Europe est traité en maitrise d'œuvre externe\n. Phase 1 de l'opération Eysin-04 : section Av. de l'Europe à av. de la Pompe (1500m) = études Codev5 Phase EP et AVP) et travaux Codev6 (si préalables levés)\n. Phase 2 = av. de la Pompe à Rocade ( Phase EP)", "GPOLE_SUIVI_OPE_AMENAGEMENT_EP_TYPE_PROJET": "Amgt EspPublic _ Géné", "GPOLE_SUIVI_OPE_AMENAGEMENT_EP_PROG_FIN_PRINC_SAU": "CODEV", "GPOLE_SUIVI_OPE_AMENAGEMENT_EP_DEBUT_TRAVAUX": 2027.0, "GPOLE_SUIVI_OPE_AMENAGEMENT_EP_FIN_TRAVAUX": 2028.0 }, "geometry": { "type": "MultiLineString", "coordinates": [ [ [ 1413453.692752229981124, 4193158.383998809847981 ], [ 1413453.442295229993761, 4193159.170195600017905 ], [ 1413424.074948200024664, 4193204.96773066977039 ], [ 1413406.572173509979621, 4193225.340972119942307 ], [ 1413387.567206529900432, 4193245.301393259782344 ], [ 1413383.911996100097895, 4193249.146989370230585 ], [ 1413374.983779930043966, 4193258.501314269844443 ], [ 1413372.342172550037503, 4193261.273409400135279 ], [ 1413367.332669510040432, 4193266.530367359984666 ], [ 1413367.887396489968523, 4193267.117771020159125 ], [ 1413325.844972060061991, 4193310.424589130096138 ], [ 1413267.611712669953704, 4193371.320912589784712 ], [ 1413243.794686649926007, 4193395.703090679831803 ], [ 1413217.298864769982174, 4193422.101679749786854 ], [ 1413216.111948869889602, 4193423.284239979926497 ], [ 1413206.430480170063674, 4193431.348945300094783 ], [ 1413180.946010420098901, 4193449.399201950058341 ], [ 1413093.981393600115553, 4193503.1434849598445 ], [ 1413065.17989188991487, 4193521.276317880023271 ], [ 1413024.449631029972807, 4193546.165570309851319 ], [ 1412992.845361160114408, 4193565.47815593983978 ], [ 1412822.222400380065665, 4193670.355534229893237 ], [ 1412809.324957600096241, 4193678.257533879950643 ], [ 1412689.35289214993827, 4193751.761966899968684 ], [ 1412601.796794210094959, 4193805.250655299983919 ], [ 1412422.825351810082793, 4193914.585675249807537 ], [ 1412417.07560950005427, 4193918.127148 ], [ 1412378.95240831002593, 4193941.60859658010304 ], [ 1412174.287554630078375, 4194066.912820439785719 ], [ 1412037.173822070006281, 4194150.859475340228528 ], [ 1412027.192053830018267, 4194156.41462290007621 ], [ 1411987.272233329946175, 4194170.893232509959489 ], [ 1411957.031380810076371, 4194180.307931260205805 ], [ 1411936.2665218799375, 4194186.772527169901878 ], [ 1411890.399749269941822, 4194201.753278220072389 ], [ 1411729.151713940082118, 4194251.202916590031236 ], [ 1411728.734592780005187, 4194251.330834370106459 ], [ 1411702.575506970053539, 4194259.873928760178387 ], [ 1411479.543789579998702, 4194331.713216749951243 ], [ 1411364.120738890022039, 4194368.891380799934268 ], [ 1411213.389101159991696, 4194417.137700299732387 ], [ 1411166.432661219965667, 4194432.167560240253806 ], [ 1411064.916673820000142, 4194463.528311300091445 ], [ 1410972.437730140052736, 4194492.878198469989002 ], [ 1410918.60245873988606, 4194509.963808209635317 ], [ 1410735.870596430031583, 4194567.749898769892752 ], [ 1410670.431815460091457, 4194588.508350670337677 ], [ 1410669.199115529889241, 4194588.850222500041127 ], [ 1410625.234301490010694, 4194601.043239570222795 ], [ 1410595.583608820103109, 4194605.183013499714434 ], [ 1410595.52, 4194605.200000000186265 ], [ 1410595.52, 4194605.200000000186265 ], [ 1410595.52, 4194605.200000000186265 ], [ 1410595.52, 4194605.200000000186265 ], [ 1410595.52, 4194605.200000000186265 ], [ 1410595.52, 4194605.200000000186265 ], [ 1410595.52, 4194605.200000000186265 ], [ 1410595.52, 4194605.200000000186265 ], [ 1410595.52, 4194605.200000000186265 ] ] ] } },
{ "type": "Feature", "properties": { "fid": 28, "GID": 46.0, "TERRIT_P": "PT_OUEST", "GO_DESCRITION": "amgt general", "GPOLE_SUIVI_OPE_AMENAGEMENT_EP_COMMUNES": "Eysines", "GPOLE_SUIVI_OPE_AMENAGEMENT_EP_LIBELLE_PROJET": "EYSIN-007 ... Rue du BLEU (Nord et Sud)", "GPOLE_SUIVI_OPE_AMENAGEMENT_EP_STATUT_PROJET": "Conception", "GPOLE_SUIVI_OPE_AMENAGEMENT_EP_CHEF_DE_PROJET": "FALGERE Eric", "GPOLE_SUIVI_OPE_AMENAGEMENT_EP_DESCRIPTION_PROJET": "Requalification générale de la rue du Bleu .Suite à l'enquête publique relative au dossier de DUP, le commissaire a émis un avis favorable à la déclaration d'utilité publique sous certaines conditions. L'AVP est donc à reprendre dans sa globalité afin d'avoir une cohérence d'aménagement. Ces deux projets sont donc regroupés en 1 seul (EYSIN-007)", "GPOLE_SUIVI_OPE_AMENAGEMENT_EP_TYPE_PROJET": "Amgt EspPublic _ Géné", "GPOLE_SUIVI_OPE_AMENAGEMENT_EP_PROG_FIN_PRINC_SAU": "FIC", "GPOLE_SUIVI_OPE_AMENAGEMENT_EP_DEBUT_TRAVAUX": 2027.0, "GPOLE_SUIVI_OPE_AMENAGEMENT_EP_FIN_TRAVAUX": 2027.0 }, "geometry": { "type": "MultiLineString", "coordinates": [ [ [ 1411076.811130220070481, 4193642.386146409902722 ], [ 1411074.09187675989233, 4193637.792995859868824 ], [ 1411064.864391759969294, 4193632.392415510024875 ], [ 1411051.036996890092269, 4193625.998380039818585 ], [ 1411034.340993470046669, 4193625.773991949856281 ], [ 1411031.112678020028397, 4193625.207984420005232 ], [ 1411007.729991209926084, 4193622.961058789864182 ], [ 1411004.475487329997122, 4193622.340631249826401 ], [ 1410997.843352899886668, 4193621.350059899967164 ], [ 1410987.98599842004478, 4193619.337311210110784 ], [ 1410978.132515130098909, 4193617.235415489878505 ], [ 1410971.597173430025578, 4193615.76219108980149 ], [ 1410964.957133790012449, 4193614.772010569926351 ], [ 1410958.283288249978796, 4193614.083695960231125 ], [ 1410951.58681348990649, 4193614.119430299848318 ], [ 1410944.880211229901761, 4193614.455960509832948 ], [ 1410938.202440049964935, 4193615.080402149818838 ], [ 1410931.562898200005293, 4193616.025700460188091 ], [ 1410920.045717590022832, 4193617.881159710232168 ], [ 1410915.025020770030096, 4193618.775538150221109 ], [ 1410911.723112769890577, 4193619.38087153993547 ], [ 1410901.926284980028868, 4193621.681387390010059 ], [ 1410895.42096652998589, 4193623.321428100112826 ], [ 1410888.905751700047404, 4193624.917429499793798 ], [ 1410882.30094258999452, 4193626.105923609808087 ], [ 1410878.962315510027111, 4193626.423726580105722 ], [ 1410872.28564944001846, 4193626.547635789960623 ], [ 1410865.587454440072179, 4193626.894993009977043 ], [ 1410858.883236530004069, 4193627.109149049967527 ], [ 1410832.066144139971584, 4193628.310678369831294 ], [ 1410825.363935260102153, 4193628.569272269960493 ], [ 1410822.007378940004855, 4193628.665448260027915 ], [ 1410815.34629729995504, 4193627.909964960068464 ], [ 1410808.701358960010111, 4193626.986907669808716 ], [ 1410802.17236607009545, 4193625.480197479948401 ], [ 1410801.971907020080835, 4193625.420587529893965 ], [ 1410795.74367415998131, 4193623.568515640217811 ], [ 1410783.01714515988715, 4193619.316563730128109 ], [ 1410776.602216120110825, 4193617.359784559812397 ], [ 1410763.743790660053492, 4193613.514277460053563 ], [ 1410757.762401330051944, 4193611.526783369947225 ], [ 1410747.821226039901376, 4193607.838560060132295 ], [ 1410743.4711720100604, 4193602.929699120111763 ], [ 1410740.374209070112556, 4193597.052038589958102 ], [ 1410739.900011430028826, 4193591.289327470120043 ], [ 1410739.644996109884232, 4193585.127382969949394 ], [ 1410740.257550100097433, 4193583.029136389959604 ] ], [ [ 1410824.995207, 4193309.133620670065284 ], [ 1410833.326594040030614, 4193310.79245568998158 ], [ 1410840.75521514005959, 4193313.648953460156918 ], [ 1410857.925352100050077, 4193317.34417513012886 ], [ 1410882.699761759955436, 4193319.561053609941155 ], [ 1410906.999833520036191, 4193317.583713499829173 ], [ 1410946.525924559915438, 4193312.159615919925272 ], [ 1410970.776554150041193, 4193308.037945230025798 ], [ 1410970.828309189993888, 4193307.969211199786514 ] ] ] } },
{ "type": "Feature", "properties": { "fid": 29, "GID": 48.0, "TERRIT_P": "PT_OUEST", "GO_DESCRITION": "amgt general", "GPOLE_SUIVI_OPE_AMENAGEMENT_EP_COMMUNES": "Eysines", "GPOLE_SUIVI_OPE_AMENAGEMENT_EP_LIBELLE_PROJET": "EYSIN-010 ... Allée du Poujeau", "GPOLE_SUIVI_OPE_AMENAGEMENT_EP_STATUT_PROJET": "Conception", "GPOLE_SUIVI_OPE_AMENAGEMENT_EP_CHEF_DE_PROJET": "FALGERE Eric", "GPOLE_SUIVI_OPE_AMENAGEMENT_EP_DESCRIPTION_PROJET": "Requalification générale de la voie. Suite à la réalisation d'un dossier de DUP, les acquisitions sont en train d'être finalisées. Les travaux seront réalisés sur le prochain mandat ( 2026-2031)", "GPOLE_SUIVI_OPE_AMENAGEMENT_EP_TYPE_PROJET": "Amgt EspPublic _ Géné", "GPOLE_SUIVI_OPE_AMENAGEMENT_EP_PROG_FIN_PRINC_SAU": "FIC", "GPOLE_SUIVI_OPE_AMENAGEMENT_EP_DEBUT_TRAVAUX": 2027.0, "GPOLE_SUIVI_OPE_AMENAGEMENT_EP_FIN_TRAVAUX": 2027.0 }, "geometry": { "type": "MultiLineString", "coordinates": [ [ [ 1410892.343992100097239, 4193132.910177169833332 ], [ 1410893.626302779885009, 4193133.195553060155362 ], [ 1410896.532423010095954, 4193126.278918480034918 ], [ 1410897.654662420041859, 4193124.337212049867958 ], [ 1410898.785798720084131, 4193122.417350389994681 ], [ 1410900.07241340004839, 4193120.612817239947617 ], [ 1410904.690854500047863, 4193115.70997099019587 ], [ 1410907.885499849915504, 4193112.551120679825544 ], [ 1410911.196163540007547, 4193109.509384479839355 ], [ 1410914.641139599960297, 4193106.639552429784089 ], [ 1410919.992280930047855, 4193102.54897245997563 ], [ 1410923.663911239942536, 4193099.969230810180306 ], [ 1410929.515345979947597, 4193096.623556550126523 ], [ 1410933.520382619928569, 4193094.596041690092534 ], [ 1410937.612375309923664, 4193092.742572749964893 ], [ 1410943.884311079978943, 4193090.301144300028682 ], [ 1410950.300594779895619, 4193088.25363885005936 ], [ 1410954.646701710065827, 4193087.122837380040437 ], [ 1410959.021504950011149, 4193086.101975540164858 ], [ 1410972.145922279916704, 4193083.039407969918102 ], [ 1410996.087155400076881, 4193076.951899650041014 ], [ 1411008.927675259998068, 4193072.856643329840153 ], [ 1411017.462179030058905, 4193070.079453750047833 ], [ 1411034.713135400088504, 4193065.050809289794415 ], [ 1411039.081074859946966, 4193064.052560240030289 ], [ 1411041.297249669907615, 4193063.741078719962388 ], [ 1411043.502655300078914, 4193063.541318130213767 ], [ 1411045.690402220003307, 4193063.475836439989507 ], [ 1411047.866878140019253, 4193063.510974970180541 ], [ 1411049.997635789914057, 4193063.75952367996797 ], [ 1411052.101971050025895, 4193064.298474160023034 ], [ 1411054.131023549940437, 4193065.096663940232247 ], [ 1411056.060112270060927, 4193066.132961390074342 ], [ 1411057.826598070096225, 4193067.421319940127432 ], [ 1411059.421083660097793, 4193068.928793990053236 ], [ 1411060.902697120094672, 4193070.563725059852004 ], [ 1411062.287223570048809, 4193072.325399870052934 ], [ 1411063.557373289950192, 4193074.181229480076581 ], [ 1411069.206941870041192, 4193083.870254570152611 ], [ 1411071.385812179883942, 4193087.809589609969407 ], [ 1411073.440405529923737, 4193091.799033519811928 ], [ 1411079.170214579906315, 4193103.96494875010103 ], [ 1411082.551526870112866, 4193112.288179699797183 ], [ 1411085.886479309992865, 4193120.635753289796412 ], [ 1411087.6234805600252, 4193124.773029579780996 ], [ 1411089.784536689985543, 4193128.668681379873306 ], [ 1411091.005809109890833, 4193130.493353850208223 ], [ 1411092.301993740024045, 4193132.225655360147357 ], [ 1411093.773686859989539, 4193133.816547919996083 ], [ 1411095.455837409943342, 4193135.164342590142041 ], [ 1411097.315371019998565, 4193136.237163669895381 ], [ 1411099.286270370008424, 4193137.149227249901742 ], [ 1411101.353753559989855, 4193137.923447920009494 ], [ 1411103.491635839920491, 4193138.505391930229962 ], [ 1411105.685636860085651, 4193138.929074550047517 ], [ 1411107.916461490094662, 4193139.117504009976983 ], [ 1411119.141592779895291, 4193139.355684170033783 ], [ 1411125.875772319966927, 4193139.618774480186403 ], [ 1411128.112853439990431, 4193139.595584679860622 ], [ 1411130.334019110072404, 4193139.395140979904681 ], [ 1411132.51659495010972, 4193139.04071431979537 ], [ 1411133.78013353003189, 4193138.649938589893281 ], [ 1411134.154171480098739, 4193139.521756059955806 ] ] ] } },
{ "type": "Feature", "properties": { "fid": 30, "GID": 49.0, "TERRIT_P": "PT_OUEST", "GO_DESCRITION": "amgt general", "GPOLE_SUIVI_OPE_AMENAGEMENT_EP_COMMUNES": "Eysines", "GPOLE_SUIVI_OPE_AMENAGEMENT_EP_LIBELLE_PROJET": "EYSIN-011 ... Chemin de Bos", "GPOLE_SUIVI_OPE_AMENAGEMENT_EP_STATUT_PROJET": "Conception", "GPOLE_SUIVI_OPE_AMENAGEMENT_EP_CHEF_DE_PROJET": "FALGERE Eric", "GPOLE_SUIVI_OPE_AMENAGEMENT_EP_DESCRIPTION_PROJET": "PUP chemin de BOS. requalification complète de la voie  ( attention le giratoire prévu dans l'étude AVP n'est pas compris dans les équipements publics du PUP) . les travaux d'assainissement ont été réalisation afin de desservir l'opération GMB promotion ( ilot 1). Travaux de  voirie dépendants de la 2ième opération immobilière portée par ERILLIA. Travaux à prévoir sur le prochain Mandat (2026-2031) avec un préalable enfouissement de réseaux.", "GPOLE_SUIVI_OPE_AMENAGEMENT_EP_TYPE_PROJET": "Amgt EspPublic _ Géné", "GPOLE_SUIVI_OPE_AMENAGEMENT_EP_PROG_FIN_PRINC_SAU": "PUP", "GPOLE_SUIVI_OPE_AMENAGEMENT_EP_DEBUT_TRAVAUX": 2027.0, "GPOLE_SUIVI_OPE_AMENAGEMENT_EP_FIN_TRAVAUX": 2027.0 }, "geometry": { "type": "MultiLineString", "coordinates": [ [ [ 1410253.620442090090364, 4193891.781992219854146 ], [ 1410262.812152510043234, 4193889.194490029942244 ], [ 1410311.570905300090089, 4193872.602711420040578 ], [ 1410324.960044869920239, 4193867.56901230989024 ], [ 1410343.366987709887326, 4193859.137860069982708 ], [ 1410364.945061889942735, 4193848.438548730220646 ], [ 1410396.862420239951462, 4193831.18651802977547 ], [ 1410455.334226239938289, 4193803.277266439981759 ], [ 1410475.197105929953977, 4193793.112071009818465 ], [ 1410479.875633320072666, 4193786.760112890042365 ] ] ] } },
{ "type": "Feature", "properties": { "fid": 160, "GID": 248.0, "TERRIT_P": "PT_OUEST", "GO_DESCRITION": "amgt general", "GPOLE_SUIVI_OPE_AMENAGEMENT_EP_COMMUNES": "Eysines", "GPOLE_SUIVI_OPE_AMENAGEMENT_EP_LIBELLE_PROJET": "EYSIN-058 ... Rue Lucien Piet", "GPOLE_SUIVI_OPE_AMENAGEMENT_EP_STATUT_PROJET": "Exécution", "GPOLE_SUIVI_OPE_AMENAGEMENT_EP_CHEF_DE_PROJET": "FALGERE Eric", "GPOLE_SUIVI_OPE_AMENAGEMENT_EP_DESCRIPTION_PROJET": "Requalification complète de la voie au droit du collège Albert camus. Réalisation d'une zone apaisée végétalisée", "GPOLE_SUIVI_OPE_AMENAGEMENT_EP_TYPE_PROJET": "Amgt EspPublic _ Géné", "GPOLE_SUIVI_OPE_AMENAGEMENT_EP_PROG_FIN_PRINC_SAU": "FIC", "GPOLE_SUIVI_OPE_AMENAGEMENT_EP_DEBUT_TRAVAUX": 2025.0, "GPOLE_SUIVI_OPE_AMENAGEMENT_EP_FIN_TRAVAUX": 2026.0 }, "geometry": { "type": "MultiLineString", "coordinates": [ [ [ 1412090.3846, 4193419.781599990092218 ], [ 1412094.22, 4193427.799999999813735 ], [ 1412126.95, 4193508.609999990090728 ], [ 1412131.870000000111759, 4193518.52 ], [ 1412143.940000009955838, 4193537.870000000111759 ], [ 1412201.680000009946525, 4193648.010000010021031 ], [ 1412213.890000000130385, 4193678.879999999888241 ], [ 1412246.160000000149012, 4193757.31 ] ] ] } },
{ "type": "Feature", "properties": { "fid": 168, "GID": 163.0, "TERRIT_P": "PT_OUEST", "GO_DESCRITION": "parking statio", "GPOLE_SUIVI_OPE_AMENAGEMENT_EP_COMMUNES": "Eysines", "GPOLE_SUIVI_OPE_AMENAGEMENT_EP_LIBELLE_PROJET": "EYSIN-019 ... Rue du Moulineau EREA", "GPOLE_SUIVI_OPE_AMENAGEMENT_EP_STATUT_PROJET": "Conception", "GPOLE_SUIVI_OPE_AMENAGEMENT_EP_CHEF_DE_PROJET": "VILLAUME Aline", "GPOLE_SUIVI_OPE_AMENAGEMENT_EP_DESCRIPTION_PROJET": "La rue du Moulineau dessert plusieurs entreprises accueillant du personnel handicapé. A ce jour, il n' y a pas d'espaces sécurisés pour le déplacement de ces personnes à mobilité réduite.\nL'objectif de cet aménagement est de créer une voie verte ainsi que des poches de stationnement sur l'intégralité de la rue.\nUn préalable enfouissement ainsi que des acquisitions foncières sont nécessaires pour mener à bien cet aménagement .", "GPOLE_SUIVI_OPE_AMENAGEMENT_EP_TYPE_PROJET": "Amgt EspPublic _ Géné", "GPOLE_SUIVI_OPE_AMENAGEMENT_EP_PROG_FIN_PRINC_SAU": "FIC", "GPOLE_SUIVI_OPE_AMENAGEMENT_EP_DEBUT_TRAVAUX": 2027.0, "GPOLE_SUIVI_OPE_AMENAGEMENT_EP_FIN_TRAVAUX": 2027.0 }, "geometry": { "type": "MultiLineString", "coordinates": [ [ [ 1410564.460000009974465, 4192976.25 ], [ 1410566.32, 4192964.48 ], [ 1410564.070000020088628, 4192870.589999999850988 ], [ 1410562.67, 4192815.950000009965152 ], [ 1410560.59, 4192774.180000000167638 ], [ 1410546.932674620067701, 4192659.833752930164337 ], [ 1410542.565191880101338, 4192548.079132109880447 ] ] ] } },
{ "type": "Feature", "properties": { "fid": 329, "GID": 300.0, "TERRIT_P": "PT_OUEST", "GO_DESCRITION": "amgt general", "GPOLE_SUIVI_OPE_AMENAGEMENT_EP_COMMUNES": "Eysines", "GPOLE_SUIVI_OPE_AMENAGEMENT_EP_LIBELLE_PROJET": "EYSIN-063 ... Centre bourg", "GPOLE_SUIVI_OPE_AMENAGEMENT_EP_STATUT_PROJET": "Conception", "GPOLE_SUIVI_OPE_AMENAGEMENT_EP_CHEF_DE_PROJET": "HARO Stéphanie", "GPOLE_SUIVI_OPE_AMENAGEMENT_EP_DESCRIPTION_PROJET": null, "GPOLE_SUIVI_OPE_AMENAGEMENT_EP_TYPE_PROJET": "Amgt EspPublic _ Géné", "GPOLE_SUIVI_OPE_AMENAGEMENT_EP_PROG_FIN_PRINC_SAU": "FIC", "GPOLE_SUIVI_OPE_AMENAGEMENT_EP_DEBUT_TRAVAUX": null, "GPOLE_SUIVI_OPE_AMENAGEMENT_EP_FIN_TRAVAUX": null }, "geometry": { "type": "MultiLineString", "coordinates": [ [ [ 1411569.099183219950646, 4193436.151553520001471 ], [ 1411578.47, 4193460.08 ], [ 1411632.058275680057704, 4193505.914475049823523 ], [ 1411686.827135209925473, 4193523.377009979914874 ], [ 1411746.358504269970581, 4193514.645742520224303 ], [ 1411786.046083640074357, 4193484.483182200230658 ], [ 1411800.333612219896168, 4193431.301825829781592 ], [ 1411796.623834749916568, 4193341.601995210163295 ], [ 1411755.883523310068995, 4193269.376501969993114 ], [ 1411731.277224099962041, 4193242.388948009815067 ], [ 1411634.298611769918352, 4193247.738377959933132 ], [ 1411564.73, 4193276.279999999795109 ], [ 1411524.813440959900618, 4193317.568236290011555 ] ], [ [ 1411356.78, 4193538.280000010039657 ], [ 1411376.8, 4193541.350000009872019 ], [ 1411451.4, 4193495.400000019930303 ], [ 1411518.160000000149012, 4193463.359999999869615 ], [ 1411562.810000010067597, 4193424.270000009797513 ], [ 1411520.33, 4193305.819999999832362 ], [ 1411410.890000000130385, 4193373.839999999850988 ], [ 1411351.240981450071558, 4193528.045595210045576 ] ], [ [ 1411711.24, 4194222.970000000204891 ], [ 1411736.83348522009328, 4194224.259661740157753 ], [ 1411788.427338409936056, 4194208.384629989974201 ], [ 1411832.877427299972624, 4194162.347037919797003 ], [ 1411858.277478110045195, 4194092.496898210141808 ], [ 1411858.277478110045195, 4194042.490548210218549 ], [ 1411848.6, 4193975.800000019837171 ], [ 1411798.746109050000086, 4193910.727784680202603 ], [ 1411750.327262219972908, 4193889.296491810120642 ], [ 1411685.239632030017674, 4193895.646504530217499 ], [ 1411627.295766150113195, 4193927.396568030118942 ], [ 1411601.910847279941663, 4193959.136342450045049 ], [ 1411585.22693200991489, 4194011.534236290026456 ], [ 1411585.683953159954399, 4194066.957630069926381 ], [ 1411595.545702639967203, 4194131.390726020094007 ], [ 1411626.502014559926465, 4194181.397076020017266 ], [ 1411648.964126569917426, 4194200.850861019920558 ], [ 1411696.660407480085269, 4194217.653556230012327 ] ] ] } },
{ "type": "Feature", "properties": { "fid": 350, "GID": 343.0, "TERRIT_P": "PT_OUEST", "GO_DESCRITION": "amgt carrefour", "GPOLE_SUIVI_OPE_AMENAGEMENT_EP_COMMUNES": "Eysines", "GPOLE_SUIVI_OPE_AMENAGEMENT_EP_LIBELLE_PROJET": "EYSIN-061 ... Carrefour Cantinolle", "GPOLE_SUIVI_OPE_AMENAGEMENT_EP_STATUT_PROJET": "Exécution", "GPOLE_SUIVI_OPE_AMENAGEMENT_EP_CHEF_DE_PROJET": "FALGERE Eric", "GPOLE_SUIVI_OPE_AMENAGEMENT_EP_DESCRIPTION_PROJET": "Requalification du carrefour de Cantinolle. Marché travaux commun avec la 2ième phase de l'avenue de Soulac.", "GPOLE_SUIVI_OPE_AMENAGEMENT_EP_TYPE_PROJET": "Amgt EspPublic _ Géné", "GPOLE_SUIVI_OPE_AMENAGEMENT_EP_PROG_FIN_PRINC_SAU": "CODEV", "GPOLE_SUIVI_OPE_AMENAGEMENT_EP_DEBUT_TRAVAUX": 2025.0, "GPOLE_SUIVI_OPE_AMENAGEMENT_EP_FIN_TRAVAUX": 2026.0 }, "geometry": { "type": "MultiLineString", "coordinates": [ [ [ 1410602.332136889919639, 4194621.796525140292943 ], [ 1410581.796290830010548, 4194629.277662529610097 ], [ 1410561.227308969944715, 4194640.159326859749854 ], [ 1410524.46853784006089, 4194654.225855220109224 ], [ 1410467.671568189980462, 4194674.131332850083709 ], [ 1410430.514675389975309, 4194690.453829339705408 ], [ 1410398.135101410094649, 4194710.757414979860187 ], [ 1410383.935856719966978, 4194717.525264710187912 ], [ 1410356.068205350078642, 4194750.170257690362632 ], [ 1410341.205442759906873, 4194778.436048960313201 ], [ 1410322.361581909935921, 4194812.142654170282185 ], [ 1410304.844765970017761, 4194840.80653521977365 ], [ 1410300.863676819950342, 4194879.29045697953552 ], [ 1410284.166076740017161, 4194876.639322429895401 ], [ 1410268.882210850017145, 4194877.565317739732563 ], [ 1410263.441378680057824, 4194851.157375209964812 ], [ 1410254.417569929966703, 4194786.530934480018914 ], [ 1410252.825119690038264, 4194782.019034660421312 ], [ 1410265.166517920093611, 4194752.69161294028163 ], [ 1410276.446285689948127, 4194726.681808019988239 ], [ 1410267.953296730061993, 4194718.056093599647284 ], [ 1410254.55027715000324, 4194705.980100709944963 ], [ 1410231.061809259932488, 4194685.676515069790184 ], [ 1410218.587722030002624, 4194676.785386210307479 ], [ 1410241.810775480000302, 4194638.699588400311768 ], [ 1410269.60067164991051, 4194668.205981980077922 ], [ 1410286.028291339986026, 4194675.870694230310619 ], [ 1410307.580000010086223, 4194682.250000010244548 ], [ 1410321.624238169984892, 4194680.983962469734251 ], [ 1410333.029354559956118, 4194680.177948799915612 ], [ 1410346.289349120110273, 4194672.365818490274251 ], [ 1410356.466327019967139, 4194655.15478300023824 ], [ 1410377.433421439956874, 4194656.083715350367129 ], [ 1410420.292452289955691, 4194655.511782590299845 ], [ 1410446.969892770051956, 4194649.315847390331328 ], [ 1410469.89437318011187, 4194640.90577766019851 ], [ 1410484.359004989964887, 4194636.194826110266149 ], [ 1410513.752762099960819, 4194626.772900249809027 ], [ 1410565.573365770047531, 4194609.521480529569089 ], [ 1410574.192502219928429, 4194593.18454097956419 ], [ 1410593.706431590020657, 4194590.743973289616406 ], [ 1410602.332136889919639, 4194621.796525140292943 ] ] ] } },
{ "type": "Feature", "properties": { "fid": 421, "GID": 545.0, "TERRIT_P": "PT_OUEST", "GO_DESCRITION": "secur° modes doux", "GPOLE_SUIVI_OPE_AMENAGEMENT_EP_COMMUNES": "Eysines", "GPOLE_SUIVI_OPE_AMENAGEMENT_EP_LIBELLE_PROJET": "EYSIN-068 Opération Aménagement Centre Bourg", "GPOLE_SUIVI_OPE_AMENAGEMENT_EP_STATUT_PROJET": "A lancer", "GPOLE_SUIVI_OPE_AMENAGEMENT_EP_CHEF_DE_PROJET": "HARO Stéphanie", "GPOLE_SUIVI_OPE_AMENAGEMENT_EP_DESCRIPTION_PROJET": "Suites de l'étude Pré opérationnelle réalisée par la Fab sur le CODEV5. Cette fiche devra être actualisée dès que l'outil d'aménagement sera connu avec les dépenses associées.", "GPOLE_SUIVI_OPE_AMENAGEMENT_EP_TYPE_PROJET": "Amgt EspPublic _ Géné", "GPOLE_SUIVI_OPE_AMENAGEMENT_EP_PROG_FIN_PRINC_SAU": null, "GPOLE_SUIVI_OPE_AMENAGEMENT_EP_DEBUT_TRAVAUX": null, "GPOLE_SUIVI_OPE_AMENAGEMENT_EP_FIN_TRAVAUX": null }, "geometry": { "type": "MultiLineString", "coordinates": [ [ [ 1411986.82, 4194005.950000000186265 ], [ 1412018.640000000130385, 4194011.279999999795109 ], [ 1412058.31, 4194004.08 ], [ 1412068.08, 4194004.359999999869615 ], [ 1412087.83, 4193999.46 ], [ 1412086.03, 4193991.660000000149012 ], [ 1412099.49, 4193988.640000000130385 ], [ 1412160.3, 4193975.370000000111759 ], [ 1412178.910000000149012, 4193971.339999999850988 ], [ 1412194.76, 4193967.5 ], [ 1412230.32, 4193958.83 ], [ 1412229.79, 4193957.720000000204891 ], [ 1412223.42, 4193944.339999999850988 ], [ 1412219.08, 4193935.220000000204891 ], [ 1412210.48, 4193917.15 ], [ 1412202.879999999888241, 4193901.19 ], [ 1412204.69, 4193900.35 ], [ 1412192.45, 4193873.879999999888241 ], [ 1412180.57, 4193848.23 ], [ 1412167.07, 4193819.06 ], [ 1412158.53, 4193800.589999999850988 ], [ 1412156.9, 4193797.08 ], [ 1412153.379999999888241, 4193789.6 ], [ 1412129.33, 4193798.680000000167638 ], [ 1412106.5, 4193801.870000000111759 ], [ 1412107.51, 4193804.359999999869615 ], [ 1412079.29, 4193809.19 ], [ 1412064.779616160085425, 4193774.211584189906716 ], [ 1412055.879908419912681, 4193750.929310409817845 ], [ 1412048.648902070010081, 4193732.891504030209035 ], [ 1412045.67, 4193725.859999999869615 ], [ 1412032.359251009998843, 4193692.567037180066109 ], [ 1412018.0, 4193657.23 ], [ 1412065.06, 4193636.259999999776483 ], [ 1412060.95, 4193626.56 ], [ 1412041.08, 4193635.29 ], [ 1412004.07, 4193547.240000000223517 ], [ 1411977.54, 4193490.109999999869615 ], [ 1411942.08, 4193510.42 ], [ 1411919.78, 4193519.890000000130385 ], [ 1411908.33, 4193500.759999999776483 ], [ 1411902.73, 4193485.54 ], [ 1411895.69, 4193466.410000000149012 ], [ 1411887.96, 4193445.450000000186265 ], [ 1411882.870000000111759, 4193431.629999999888241 ], [ 1411879.44, 4193428.660000000149012 ], [ 1411840.29, 4193427.35 ], [ 1411822.17, 4193426.17 ], [ 1411817.98, 4193425.950000000186265 ], [ 1411803.84, 4193425.200000000186265 ], [ 1411804.15, 4193426.819999999832362 ], [ 1411784.05, 4193427.129999999888241 ], [ 1411757.57, 4193427.549999999813735 ], [ 1411753.25, 4193427.609999999869615 ], [ 1411747.77, 4193427.970000000204891 ], [ 1411729.98, 4193429.17 ], [ 1411709.32, 4193430.450000000186265 ], [ 1411709.15, 4193428.35 ], [ 1411685.98, 4193430.85 ], [ 1411648.75, 4193438.200000000186265 ], [ 1411644.47, 4193439.35 ], [ 1411638.390000000130385, 4193442.02 ], [ 1411631.04, 4193445.5 ], [ 1411611.69, 4193452.700000000186265 ], [ 1411586.25, 4193461.740000000223517 ], [ 1411575.17, 4193465.680000000167638 ], [ 1411570.9, 4193452.359999999869615 ], [ 1411562.78, 4193434.740000000223517 ], [ 1411559.58, 4193433.5 ], [ 1411543.76, 4193443.77 ], [ 1411539.42, 4193447.71 ], [ 1411533.68, 4193452.910000000149012 ], [ 1411536.73, 4193459.31 ], [ 1411528.48, 4193464.069999999832362 ], [ 1411520.18, 4193468.870000000111759 ], [ 1411515.79, 4193471.4 ], [ 1411508.160000000149012, 4193475.529999999795109 ], [ 1411501.68, 4193477.819999999832362 ], [ 1411488.82, 4193482.69 ], [ 1411478.379999999888241, 4193486.81 ], [ 1411468.109999999869615, 4193491.140000000130385 ], [ 1411443.05, 4193503.049999999813735 ], [ 1411429.2, 4193511.339999999850988 ], [ 1411415.04, 4193519.890000000130385 ], [ 1411415.28, 4193521.490000000223517 ], [ 1411396.35, 4193533.930000000167638 ], [ 1411400.78, 4193548.4 ], [ 1411404.870000000111759, 4193565.42 ], [ 1411419.96, 4193621.160000000149012 ], [ 1411424.69, 4193638.629999999888241 ], [ 1411438.24, 4193683.259999999776483 ], [ 1411450.8, 4193725.65 ], [ 1411475.79, 4193706.759999999776483 ], [ 1411489.96, 4193696.06 ], [ 1411503.31, 4193689.359999999869615 ], [ 1411513.93, 4193685.950000000186265 ], [ 1411538.31, 4193674.85 ], [ 1411555.54, 4193724.140000000130385 ], [ 1411562.69, 4193745.180000000167638 ], [ 1411565.99, 4193755.120000000111759 ], [ 1411567.45, 4193759.529999999795109 ], [ 1411569.03, 4193764.390000000130385 ], [ 1411573.72, 4193778.44 ], [ 1411571.52, 4193779.660000000149012 ], [ 1411572.23, 4193784.240000000223517 ], [ 1411623.74, 4193771.410000000149012 ], [ 1411672.71, 4193759.5 ], [ 1411681.160000000149012, 4193754.81 ], [ 1411682.22, 4193761.9 ], [ 1411685.46, 4193772.65 ], [ 1411689.44, 4193785.740000000223517 ], [ 1411692.84, 4193796.410000000149012 ], [ 1411708.56, 4193827.19 ], [ 1411714.1, 4193838.259999999776483 ], [ 1411720.15, 4193850.259999999776483 ], [ 1411725.24, 4193860.009999999776483 ], [ 1411731.43, 4193871.96 ], [ 1411733.160000000149012, 4193875.21 ], [ 1411736.21, 4193881.200000000186265 ], [ 1411742.35, 4193892.9 ], [ 1411759.620000000111759, 4193921.319999999832362 ], [ 1411770.28217485989444, 4193935.833806530106813 ], [ 1411779.261348169995472, 4193947.911985890008509 ], [ 1411783.154969220049679, 4193952.997530879918486 ], [ 1411809.94, 4193992.83 ], [ 1411814.390000000130385, 4194000.129999999888241 ], [ 1411819.95, 4193996.339999999850988 ], [ 1411824.48, 4194003.279999999795109 ], [ 1411825.98, 4194002.29 ], [ 1411829.83, 4194007.640000000130385 ], [ 1411823.0, 4194012.42 ], [ 1411834.4, 4194026.79 ], [ 1411869.07, 4194003.700000000186265 ], [ 1411887.629999999888241, 4193991.299999999813735 ], [ 1411888.4, 4193976.450000000186265 ], [ 1411921.3, 4193970.700000000186265 ], [ 1411984.35, 4193967.75 ], [ 1411986.82, 4194005.950000000186265 ] ] ] } },
{ "type": "Feature", "properties": { "fid": 444, "GID": 420.0, "TERRIT_P": "PT_OUEST", "GO_DESCRITION": "amgt voie verte", "GPOLE_SUIVI_OPE_AMENAGEMENT_EP_COMMUNES": "Eysines", "GPOLE_SUIVI_OPE_AMENAGEMENT_EP_LIBELLE_PROJET": "EYSIN-017 ... Rue du Bréteil", "GPOLE_SUIVI_OPE_AMENAGEMENT_EP_STATUT_PROJET": "Conception", "GPOLE_SUIVI_OPE_AMENAGEMENT_EP_CHEF_DE_PROJET": "FALGERE Eric", "GPOLE_SUIVI_OPE_AMENAGEMENT_EP_DESCRIPTION_PROJET": "Requalification de la rue de Breteil avec pour objectif la création d'une liaison douce sécurisée.", "GPOLE_SUIVI_OPE_AMENAGEMENT_EP_TYPE_PROJET": "Amgt EspPublic _ Géné", "GPOLE_SUIVI_OPE_AMENAGEMENT_EP_PROG_FIN_PRINC_SAU": "FIC", "GPOLE_SUIVI_OPE_AMENAGEMENT_EP_DEBUT_TRAVAUX": 2027.0, "GPOLE_SUIVI_OPE_AMENAGEMENT_EP_FIN_TRAVAUX": 2027.0 }, "geometry": { "type": "MultiLineString", "coordinates": [ [ [ 1412129.05, 4192518.6 ], [ 1412128.827760240063071, 4192518.255823379848152 ], [ 1412120.68, 4192539.44 ], [ 1412090.004595750011504, 4192619.559829880017787 ], [ 1412089.48, 4192620.930000000167638 ], [ 1412087.225297879893333, 4192627.538148710038513 ], [ 1412084.42, 4192635.759999999776483 ], [ 1412053.303538490086794, 4192774.364406410139054 ], [ 1412052.31, 4192778.79 ], [ 1412042.410000000149012, 4192818.319999999832362 ], [ 1412029.629999999888241, 4192863.42 ], [ 1412018.68, 4192894.15 ], [ 1412005.870000000111759, 4192920.620000000111759 ], [ 1411989.81, 4192949.17 ], [ 1411980.951580900000408, 4192965.850350339896977 ], [ 1411981.390000000130385, 4192967.129999999888241 ], [ 1411960.23, 4193007.490000000223517 ], [ 1411948.83, 4193029.509999999776483 ], [ 1411940.390000000130385, 4193049.700000000186265 ], [ 1411925.7, 4193103.9 ], [ 1411922.933926040073857, 4193117.964122539851815 ], [ 1411922.859999999869615, 4193118.339999999850988 ] ] ] } },
{ "type": "Feature", "properties": { "fid": 494, "GID": 512.0, "TERRIT_P": "PT_OUEST", "GO_DESCRITION": "amgt gir", "GPOLE_SUIVI_OPE_AMENAGEMENT_EP_COMMUNES": "Eysines", "GPOLE_SUIVI_OPE_AMENAGEMENT_EP_LIBELLE_PROJET": "EYSIN-065 Avenue Médoc (Giratoire Pauillac)", "GPOLE_SUIVI_OPE_AMENAGEMENT_EP_STATUT_PROJET": "Conception", "GPOLE_SUIVI_OPE_AMENAGEMENT_EP_CHEF_DE_PROJET": "PIAGUET Emilie", "GPOLE_SUIVI_OPE_AMENAGEMENT_EP_DESCRIPTION_PROJET": "Réalisation de l'étude préliminaire et AVP du giratoire situé au carrefour de l'avenue du Médoc et de la route de Pauillac. Ce contrat englobe la levée des préalables fonciers dans le cadre de la DUP 2025.", "GPOLE_SUIVI_OPE_AMENAGEMENT_EP_TYPE_PROJET": "Amgt EspPublic _ Géné", "GPOLE_SUIVI_OPE_AMENAGEMENT_EP_PROG_FIN_PRINC_SAU": "CODEV", "GPOLE_SUIVI_OPE_AMENAGEMENT_EP_DEBUT_TRAVAUX": null, "GPOLE_SUIVI_OPE_AMENAGEMENT_EP_FIN_TRAVAUX": null }, "geometry": { "type": "MultiLineString", "coordinates": [ [ [ 1412827.292982629965991, 4193708.84324140008539 ], [ 1412833.548099870095029, 4193704.663705680053681 ], [ 1412838.256900569889694, 4193698.796661600004882 ], [ 1412841.193975340109318, 4193690.727114980109036 ], [ 1412841.546092649921775, 4193685.354843030218035 ], [ 1412840.983509439975023, 4193681.081599310040474 ], [ 1412840.078434879891574, 4193677.976429169997573 ], [ 1412838.256900569889694, 4193674.070136229973286 ], [ 1412836.459972949931398, 4193671.380843999795616 ], [ 1412834.327395220054314, 4193668.949105150066316 ], [ 1412832.737005600007251, 4193667.491781559772789 ], [ 1412831.025653759948909, 4193666.178615109995008 ], [ 1412827.292982629965991, 4193664.023556429892778 ], [ 1412825.300071209901944, 4193663.198065489996225 ], [ 1412821.136817530030385, 4193662.082525029778481 ], [ 1412817.921657349914312, 4193661.730407719966024 ], [ 1412814.68804277991876, 4193661.800965439993888 ], [ 1412811.491301859961823, 4193662.292990929912776 ], [ 1412808.386131709907204, 4193663.198065489996225 ], [ 1412804.479838779894635, 4193665.019599799998105 ], [ 1412800.949197320034727, 4193667.491781559772789 ], [ 1412796.588317659916356, 4193672.25084660993889 ], [ 1412793.607768039917573, 4193677.976429169997573 ], [ 1412792.328114950098097, 4193683.205939710140228 ], [ 1412792.328114950098097, 4193689.66085811983794 ], [ 1412793.260995090007782, 4193693.868808490224183 ], [ 1412793.998770769918337, 4193695.895830510184169 ], [ 1412795.988961480092257, 4193699.718951310031116 ], [ 1412798.612794690066949, 4193703.138397320173681 ], [ 1412802.660549160093069, 4193706.68818271998316 ], [ 1412807.380669859936461, 4193709.277729609981179 ], [ 1412811.491301859961823, 4193710.573806900065392 ], [ 1412816.843101460020989, 4193711.159924279898405 ], [ 1412821.136817530030385, 4193710.784272800199687 ], [ 1412824.278511039912701, 4193710.015505290124565 ], [ 1412827.292982629965991, 4193708.84324140008539 ] ] ] } },
{ "type": "Feature", "properties": { "fid": 495, "GID": 513.0, "TERRIT_P": "PT_OUEST", "GO_DESCRITION": "amgt cyclable", "GPOLE_SUIVI_OPE_AMENAGEMENT_EP_COMMUNES": "Eysines", "GPOLE_SUIVI_OPE_AMENAGEMENT_EP_LIBELLE_PROJET": "EYSIN-066 Aménagement cyclable Avenue René Antoune ( Taillan/Lande Blanche)", "GPOLE_SUIVI_OPE_AMENAGEMENT_EP_STATUT_PROJET": "Conception", "GPOLE_SUIVI_OPE_AMENAGEMENT_EP_CHEF_DE_PROJET": "GOURAUD Simon", "GPOLE_SUIVI_OPE_AMENAGEMENT_EP_DESCRIPTION_PROJET": "Résorption des discontinuités cyclables.  réalisation des études préliminaires. Finalisation des études AVP sur ce contrat. Levée des préalables règlementaires et fonciers.  L'avenue René Antoune étant une voie de catégorie 3, les travaux seront financés sur le fonds d'intérêt communal", "GPOLE_SUIVI_OPE_AMENAGEMENT_EP_TYPE_PROJET": "Amgt EspPublic _ Géné", "GPOLE_SUIVI_OPE_AMENAGEMENT_EP_PROG_FIN_PRINC_SAU": "CODEV", "GPOLE_SUIVI_OPE_AMENAGEMENT_EP_DEBUT_TRAVAUX": 2027.0, "GPOLE_SUIVI_OPE_AMENAGEMENT_EP_FIN_TRAVAUX": 2027.0 }, "geometry": { "type": "MultiLineString", "coordinates": [ [ [ 1411568.71, 4192767.569999999832362 ], [ 1411566.78, 4192787.31 ], [ 1411566.2, 4192811.109999999869615 ], [ 1411566.474988339934498, 4192851.719985370058566 ], [ 1411567.66216267994605, 4192879.420724850147963 ], [ 1411570.52, 4192905.599 ], [ 1411572.8, 4192924.08 ], [ 1411576.07, 4192942.200000000186265 ], [ 1411583.095429129898548, 4192971.624601189978421 ], [ 1411587.75, 4192991.04 ], [ 1411593.890000000130385, 4193016.71 ], [ 1411595.160000000149012, 4193029.4 ], [ 1411594.7, 4193040.140000000130385 ], [ 1411593.45, 4193048.08 ], [ 1411588.7, 4193062.089999999850988 ], [ 1411574.75, 4193085.470000000204891 ], [ 1411557.54, 4193112.31 ], [ 1411547.480227849911898, 4193128.331607120111585 ], [ 1411536.2, 4193147.319999999832362 ], [ 1411532.48, 4193161.54 ], [ 1411532.359999999869615, 4193175.120000000111759 ], [ 1411541.148612030083314, 4193211.829555190168321 ], [ 1411549.854576529935002, 4193238.73883544979617 ], [ 1411562.45, 4193272.859999999869615 ] ] ] } },
{ "type": "Feature", "properties": { "fid": 496, "GID": 514.0, "TERRIT_P": "PT_OUEST", "GO_DESCRITION": "amgt cyclable", "GPOLE_SUIVI_OPE_AMENAGEMENT_EP_COMMUNES": "Eysines", "GPOLE_SUIVI_OPE_AMENAGEMENT_EP_LIBELLE_PROJET": "EYSIN-067 Aménagement cyclable Avenue du Taillan Médoc (126/130)", "GPOLE_SUIVI_OPE_AMENAGEMENT_EP_STATUT_PROJET": "Conception", "GPOLE_SUIVI_OPE_AMENAGEMENT_EP_CHEF_DE_PROJET": "VILLAUME Aline", "GPOLE_SUIVI_OPE_AMENAGEMENT_EP_DESCRIPTION_PROJET": "Réaliser les travaux d'aménagement cyclable pour résorber la discontinuité au droit du n°126 - DUP en cours en 2023", "GPOLE_SUIVI_OPE_AMENAGEMENT_EP_TYPE_PROJET": "Amgt EspPublic _ Géné", "GPOLE_SUIVI_OPE_AMENAGEMENT_EP_PROG_FIN_PRINC_SAU": "CODEV", "GPOLE_SUIVI_OPE_AMENAGEMENT_EP_DEBUT_TRAVAUX": 2026.0, "GPOLE_SUIVI_OPE_AMENAGEMENT_EP_FIN_TRAVAUX": 2026.0 }, "geometry": { "type": "MultiLineString", "coordinates": [ [ [ 1412094.000236789928749, 4192979.011106450110674 ], [ 1412132.692487620050088, 4192947.509456399828196 ] ] ] } },
{ "type": "Feature", "properties": { "fid": 497, "GID": 515.0, "TERRIT_P": "PT_OUEST", "GO_DESCRITION": "securis° modes doux", "GPOLE_SUIVI_OPE_AMENAGEMENT_EP_COMMUNES": "Eysines", "GPOLE_SUIVI_OPE_AMENAGEMENT_EP_LIBELLE_PROJET": "EYSIN-069 Avenue du Médoc ( Rocade/Hippodrome)", "GPOLE_SUIVI_OPE_AMENAGEMENT_EP_STATUT_PROJET": "Conception", "GPOLE_SUIVI_OPE_AMENAGEMENT_EP_CHEF_DE_PROJET": "PIAGUET Emilie", "GPOLE_SUIVI_OPE_AMENAGEMENT_EP_DESCRIPTION_PROJET": "Réalisation d'une étude visant à sécuriser le déplacement des modes doux", "GPOLE_SUIVI_OPE_AMENAGEMENT_EP_TYPE_PROJET": "Amgt EspPublic _ Géné", "GPOLE_SUIVI_OPE_AMENAGEMENT_EP_PROG_FIN_PRINC_SAU": "CODEV", "GPOLE_SUIVI_OPE_AMENAGEMENT_EP_DEBUT_TRAVAUX": null, "GPOLE_SUIVI_OPE_AMENAGEMENT_EP_FIN_TRAVAUX": null }, "geometry": { "type": "MultiLineString", "coordinates": [ [ [ 1413453.44, 4193159.180000000167638 ], [ 1413496.32, 4193098.129999999888241 ], [ 1413553.56, 4193032.240000000223517 ], [ 1413610.359999999869615, 4192981.490000000223517 ], [ 1413666.43, 4192934.35 ], [ 1413710.17, 4192901.180000000167638 ], [ 1413736.81, 4192878.759999999776483 ], [ 1413777.859999999869615, 4192839.94 ], [ 1413849.094146090094, 4192761.891786369960755 ], [ 1413909.737999999895692, 4192708.321 ] ] ] } },
{ "type": "Feature", "properties": { "fid": 537, "GID": 1083.0, "TERRIT_P": "PT_OUEST", "GO_DESCRITION": "sécurisat° accès", "GPOLE_SUIVI_OPE_AMENAGEMENT_EP_COMMUNES": "Eysines", "GPOLE_SUIVI_OPE_AMENAGEMENT_EP_LIBELLE_PROJET": "EYSIN-071...Av Mermoz (accès déchetterie)", "GPOLE_SUIVI_OPE_AMENAGEMENT_EP_STATUT_PROJET": "A lancer", "GPOLE_SUIVI_OPE_AMENAGEMENT_EP_CHEF_DE_PROJET": "GOURAUD Simon", "GPOLE_SUIVI_OPE_AMENAGEMENT_EP_DESCRIPTION_PROJET": "Sécurisation de l’entrée-sortie de la déchetterie. Séparation des flux avec obligation d'emprunter le giratoire de la Lande Blanche \n    \n-\tMatérialisation de l’entrée-sortie de la déchetterie,\n-\tSéparation des flux descendants et montants avec obligation de prendre le giratoire rue de la Lande Blanche", "GPOLE_SUIVI_OPE_AMENAGEMENT_EP_TYPE_PROJET": "Amgt EspPublic _ Géné", "GPOLE_SUIVI_OPE_AMENAGEMENT_EP_PROG_FIN_PRINC_SAU": "FIC", "GPOLE_SUIVI_OPE_AMENAGEMENT_EP_DEBUT_TRAVAUX": null, "GPOLE_SUIVI_OPE_AMENAGEMENT_EP_FIN_TRAVAUX": null }, "geometry": { "type": "MultiLineString", "coordinates": [ [ [ 1410996.642677949974313, 4192789.043637290131301 ], [ 1410978.966611509909853, 4192770.292682429775596 ] ] ] } },
{ "type": "Feature", "properties": { "fid": 562, "GID": 1761.0, "TERRIT_P": "PT_OUEST", "GO_DESCRITION": "amgt général", "GPOLE_SUIVI_OPE_AMENAGEMENT_EP_COMMUNES": "Eysines", "GPOLE_SUIVI_OPE_AMENAGEMENT_EP_LIBELLE_PROJET": "EYSIN-075...ZAC Carès Cantinolle", "GPOLE_SUIVI_OPE_AMENAGEMENT_EP_STATUT_PROJET": "Exécution", "GPOLE_SUIVI_OPE_AMENAGEMENT_EP_CHEF_DE_PROJET": "FALGERE Eric", "GPOLE_SUIVI_OPE_AMENAGEMENT_EP_DESCRIPTION_PROJET": null, "GPOLE_SUIVI_OPE_AMENAGEMENT_EP_TYPE_PROJET": null, "GPOLE_SUIVI_OPE_AMENAGEMENT_EP_PROG_FIN_PRINC_SAU": "Autres", "GPOLE_SUIVI_OPE_AMENAGEMENT_EP_DEBUT_TRAVAUX": null, "GPOLE_SUIVI_OPE_AMENAGEMENT_EP_FIN_TRAVAUX": null }, "geometry": { "type": "MultiLineString", "coordinates": [ [ [ 1410596.537893269909546, 4194600.074983919970691 ], [ 1410559.381000469904393, 4194611.686515199951828 ], [ 1410559.049232410034165, 4194608.866568700410426 ], [ 1410559.215125560062006, 4194603.226684809662402 ], [ 1410560.044518369948491, 4194599.743224970065057 ], [ 1410561.371554160024971, 4194596.259769690223038 ], [ 1410563.196214699884877, 4194593.273948269896209 ], [ 1410565.35264331009239, 4194590.454006330110133 ], [ 1410566.679679099936038, 4194588.961095619946718 ], [ 1410567.840821749996394, 4194587.634059829637408 ], [ 1410568.836107699899003, 4194587.13642595987767 ], [ 1410527.887234949972481, 4194456.858910979703069 ], [ 1410489.593041060026735, 4194470.676630379632115 ], [ 1410465.582058979896829, 4194480.546429459936917 ], [ 1410435.843061130028218, 4194493.656050190329552 ], [ 1410422.36495599988848, 4194490.926627269946039 ], [ 1410430.337953469948843, 4194471.169081640429795 ], [ 1410442.431047880090773, 4194440.589292869903147 ], [ 1410451.50159513996914, 4194418.304810930043459 ], [ 1410455.597691250033677, 4194409.268750719726086 ], [ 1410457.805955769959837, 4194404.458260430023074 ], [ 1410458.71828946005553, 4194402.343303400091827 ], [ 1410462.305423399899155, 4194394.79580997955054 ], [ 1410463.590984760085121, 4194392.172849340364337 ], [ 1410465.269555019913241, 4194388.944235179573298 ], [ 1410468.08949240995571, 4194383.801985160447657 ], [ 1410468.816173380007967, 4194382.458561699837446 ], [ 1410469.935856410069391, 4194380.903446190059185 ], [ 1410472.45211254991591, 4194377.365880710072815 ], [ 1410480.52515525999479, 4194369.113116879947484 ], [ 1410477.508231020066887, 4194368.618071679957211 ], [ 1410480.746056630043313, 4194343.77539089974016 ], [ 1410487.081973630003631, 4194294.8827796401456 ], [ 1410484.343285989947617, 4194294.800617619883269 ], [ 1410476.07007172005251, 4194294.559833640232682 ], [ 1410469.665071380091831, 4194294.398879630025476 ], [ 1410462.509466880001128, 4194294.352485429961234 ], [ 1410449.328309220029041, 4194294.291835360229015 ], [ 1410443.367033000104129, 4194294.644328109920025 ], [ 1410437.353400629945099, 4194294.94757559010759 ], [ 1410432.942056610016152, 4194295.196394229773432 ], [ 1410423.025603780057281, 4194295.751051870174706 ], [ 1410420.431154320016503, 4194295.919004609808326 ], [ 1410413.827097420115024, 4194298.179105610121042 ], [ 1410409.151383700082079, 4194299.215848910156637 ], [ 1410405.408738610101864, 4194299.43356542987749 ], [ 1410387.939608630025759, 4194297.681468329858035 ], [ 1410372.191471920115873, 4194296.136719429865479 ], [ 1410359.263278869912028, 4194294.830421989783645 ], [ 1410345.319078600034118, 4194293.461919750086963 ], [ 1410344.603724790038541, 4194285.6967105101794 ], [ 1410346.453275910113007, 4194271.336773349903524 ], [ 1410346.743563849944621, 4194268.827854849863797 ], [ 1410347.677670669974759, 4194264.82098965998739 ], [ 1410348.854374350048602, 4194258.353633780032396 ], [ 1410349.232785620028153, 4194256.651450629811734 ], [ 1410349.556532660033554, 4194255.357745219953358 ], [ 1410354.52017732989043, 4194245.527192019857466 ], [ 1410357.039463009918109, 4194240.530088390223682 ], [ 1410366.731980649987236, 4194224.0489761098288 ], [ 1410374.751192410010844, 4194221.928835640195757 ], [ 1410379.867521909996867, 4194220.575885170139372 ], [ 1410385.730307339923456, 4194219.025953529868275 ], [ 1410391.230232269968837, 4194217.569328960031271 ], [ 1410394.402667240006849, 4194216.734750560019165 ], [ 1410397.357386539923027, 4194215.957192800007761 ], [ 1410401.442155770026147, 4194214.873795759864151 ], [ 1410405.304026019992307, 4194213.862971 ], [ 1410410.218190059997141, 4194212.561857719905674 ], [ 1410413.737934469943866, 4194211.628788520116359 ], [ 1410417.319883679971099, 4194210.685351859778166 ], [ 1410421.503143769921735, 4194209.581219890154898 ], [ 1410429.522355430060998, 4194207.476630330085754 ], [ 1410434.654235919937491, 4194206.108128369785845 ], [ 1410440.361509769922122, 4194204.610033790115267 ], [ 1410446.431643330026418, 4194203.003080939874053 ], [ 1410453.662929800106212, 4194201.09028908982873 ], [ 1410459.593103050021455, 4194199.529989710077643 ], [ 1410476.00475408998318, 4194194.957950950134546 ], [ 1410489.772708209929988, 4194191.106448729988188 ], [ 1410497.833389970008284, 4194188.867082380224019 ], [ 1410506.329503929940984, 4194186.498123120050877 ], [ 1410513.830343750072643, 4194184.409084619954228 ], [ 1410521.512613819912076, 4194182.268209349829704 ], [ 1410527.587931609945372, 4194180.562765989918262 ], [ 1410534.985096560092643, 4194178.494462709873915 ], [ 1410539.323868379928172, 4194177.281472470145673 ], [ 1410545.870904359966516, 4194175.285740890074521 ], [ 1410549.03297243011184, 4194174.3267528899014 ], [ 1410552.542349090101197, 4194173.253723599947989 ], [ 1410558.50880889990367, 4194171.444605859927833 ], [ 1410559.918779300060123, 4194177.006735160015523 ], [ 1410561.323567250045016, 4194182.610333989840001 ], [ 1410563.464443380013108, 4194190.987222069874406 ], [ 1410564.936618580017239, 4194196.772251499816775 ], [ 1410566.507285440107808, 4194202.904589859768748 ], [ 1410567.455905969953164, 4194206.719805940054357 ], [ 1410568.731100729899481, 4194211.628787090070546 ], [ 1410569.524208969902247, 4194214.806406230200082 ], [ 1410570.690546599915251, 4194219.383628860116005 ], [ 1410571.587329519912601, 4194222.90337263001129 ], [ 1410572.62925640004687, 4194227.019244689960033 ], [ 1410573.111341770039871, 4194228.937220119871199 ], [ 1410573.748939430108294, 4194231.420221239794046 ], [ 1410574.148085640044883, 4194233.053092469926924 ], [ 1410574.656090100063011, 4194235.017721650190651 ], [ 1410623.326019109925255, 4194223.468397730030119 ], [ 1410647.263650699984282, 4194217.768770779948682 ], [ 1410659.714812410064042, 4194214.807660489808768 ], [ 1410665.327811100054532, 4194213.471550929825753 ], [ 1410668.349983539897949, 4194212.752504410222173 ], [ 1410670.057566720061004, 4194212.346037989947945 ], [ 1410671.450723380083218, 4194212.014344870112836 ], [ 1410672.170612150104716, 4194211.842634209897369 ], [ 1410672.911235820036381, 4194211.668331650085747 ], [ 1410673.813202739926055, 4194211.453855339903384 ], [ 1410674.662684570066631, 4194211.249746410176158 ], [ 1410675.581498580053449, 4194211.03138229995966 ], [ 1410676.18410578998737, 4194210.888182030059397 ], [ 1410676.93250513006933, 4194210.709991740062833 ], [ 1410677.699695349903777, 4194210.527265740092844 ], [ 1410678.701448899926618, 4194210.290110679809004 ], [ 1410679.410970309982076, 4194210.11969594983384 ], [ 1410684.427513619884849, 4194208.93787328992039 ], [ 1410687.649194129975513, 4194208.339153840206563 ], [ 1410692.71627873997204, 4194207.39571717986837 ], [ 1410700.649959499947727, 4194205.915765730198473 ], [ 1410704.216357650002465, 4194205.249657889828086 ], [ 1410705.706676279893145, 4194211.638589890208095 ], [ 1410706.276885259896517, 4194214.103447869885713 ], [ 1410706.917074440047145, 4194216.889696110039949 ], [ 1410707.544304349925369, 4194219.587821450084448 ], [ 1410708.122289279941469, 4194222.078597879968584 ], [ 1410708.809131920104846, 4194225.04627609020099 ], [ 1410709.731833929894492, 4194229.032555160112679 ], [ 1410711.297317190095782, 4194235.73251021001488 ], [ 1410712.642619640100747, 4194241.537575060036033 ], [ 1410713.425360709894449, 4194244.927726409863681 ], [ 1410715.28631607000716, 4194252.926203229930252 ], [ 1410716.447468969970942, 4194257.964777019806206 ], [ 1410717.344251319998875, 4194261.81109579000622 ], [ 1410718.329156989930198, 4194266.087663010228425 ], [ 1410719.314063800033182, 4194270.302025579847395 ], [ 1410720.33007216011174, 4194274.651165079791099 ], [ 1410720.537420939886943, 4194275.604969209991395 ], [ 1410721.38236736995168, 4194279.212836800143123 ], [ 1410752.276795550016686, 4194271.477021249942482 ], [ 1410763.97955165989697, 4194267.160026050172746 ], [ 1410772.52231950010173, 4194262.847172259818763 ], [ 1410778.950127470074221, 4194260.358986979816109 ], [ 1410780.484511469956487, 4194259.77841110015288 ], [ 1410784.382667710073292, 4194257.663453510031104 ], [ 1410791.722815070068464, 4194253.433540590107441 ], [ 1410807.273966759908944, 4194244.849304019939154 ], [ 1410808.144832859979942, 4194244.14431738993153 ], [ 1410830.165270369965583, 4194223.409449220169336 ], [ 1410839.910654149949551, 4194212.544373299926519 ], [ 1410848.660774759948254, 4194202.75751622999087 ], [ 1410872.547350649954751, 4194176.133938129991293 ], [ 1410875.32582387002185, 4194171.613737280014902 ], [ 1410883.288011279888451, 4194162.739212759770453 ], [ 1410893.365163119975477, 4194151.293560959864408 ], [ 1410910.62072424008511, 4194131.736426120158285 ], [ 1410919.792908160015941, 4194121.470293099991977 ], [ 1410924.147231820039451, 4194116.504291439894587 ], [ 1410929.434623529901728, 4194110.532648750115186 ], [ 1410939.905734, 4194098.724139300175011 ], [ 1410945.307168130064383, 4194092.472575420048088 ], [ 1410960.633223870070651, 4194074.259359280113131 ], [ 1410955.944156930083409, 4194073.323920890223235 ], [ 1410952.21706404001452, 4194068.917501559946686 ], [ 1410950.674907790031284, 4194066.224559910129756 ], [ 1410949.293446850031614, 4194063.816722889896482 ], [ 1410945.66691830009222, 4194057.422606130130589 ], [ 1410943.63063475000672, 4194053.524484269786626 ], [ 1410935.983733060071245, 4194039.321061789989471 ], [ 1410932.267920410027727, 4194032.95549330022186 ], [ 1410931.038466339930892, 4194030.788662270177156 ], [ 1410928.867402580101043, 4194027.89618074009195 ], [ 1410925.0979250499513, 4194023.396680139936507 ], [ 1410922.848190669901669, 4194021.333559589926153 ], [ 1410920.158759820042178, 4194018.855783579871058 ], [ 1410917.695575169986114, 4194016.823724780231714 ], [ 1410914.637181770056486, 4194015.475958609953523 ], [ 1410912.190467499895021, 4194014.366642760112882 ], [ 1410911.447899909922853, 4194014.035663180053234 ], [ 1410908.293607580009848, 4194013.068899789825082 ], [ 1410905.254652790026739, 4194012.28278842009604 ], [ 1410903.724159910110757, 4194012.133238660171628 ], [ 1410901.815514950081706, 4194011.94999440992251 ], [ 1410899.672706299927086, 4194011.971805919893086 ], [ 1410897.642622099956498, 4194011.981096810195595 ], [ 1410894.779277770081535, 4194012.220627409871668 ], [ 1410893.101685599889606, 4194012.328405959997326 ], [ 1410891.665795539971441, 4194012.369875549804419 ], [ 1410888.462258160114288, 4194012.940084530040622 ], [ 1410885.771908560069278, 4194013.349598479922861 ], [ 1410885.403864480089396, 4194013.416986589785665 ], [ 1410875.403306720079854, 4194016.625449430197477 ], [ 1410871.413009889889508, 4194017.896237819921225 ], [ 1410869.213177330093458, 4194018.940798580180854 ], [ 1410857.643119340064004, 4194022.963362149894238 ], [ 1410845.533954190090299, 4194027.172542979940772 ], [ 1410843.64708144008182, 4194027.234747210051864 ], [ 1410840.619790160097182, 4194026.633435830008239 ], [ 1410837.98646090994589, 4194024.891707050148398 ], [ 1410836.265467640012503, 4194022.735279580112547 ], [ 1410835.311661799903959, 4194020.827672469895333 ], [ 1410834.503003349993378, 4194019.272557530086488 ], [ 1410832.657599329948425, 4194014.856029630172998 ], [ 1410832.014818080002442, 4194013.57046712981537 ], [ 1410828.324012310011312, 4194005.2350491899997 ], [ 1410826.976244440069422, 4194002.124817030038685 ], [ 1410826.727427500067279, 4194001.502772420179099 ], [ 1410821.046072609955445, 4193991.23900901991874 ], [ 1410815.157367229927331, 4193980.1043840800412 ], [ 1410812.10934044001624, 4193973.946126840077341 ], [ 1410810.160262319957837, 4193971.644555400125682 ], [ 1410804.209356130100787, 4193964.967927080113441 ], [ 1410799.419599419925362, 4193959.431716159917414 ], [ 1410798.315867380006239, 4193958.267061830032617 ], [ 1410797.463016140041873, 4193958.266284309793264 ], [ 1410795.867986209923401, 4193955.520209679845721 ], [ 1410793.257466020062566, 4193951.075560510158539 ], [ 1410792.653562840074301, 4193951.228480159770697 ], [ 1410789.798617270076647, 4193947.778718430083245 ], [ 1410789.022368089994416, 4193946.861197870224714 ], [ 1410788.167054469930008, 4193945.840005489997566 ], [ 1410786.591204029973596, 4193943.841682120226324 ], [ 1410784.967391829937696, 4193941.786340659949929 ], [ 1410782.458472189959139, 4193938.634639769792557 ], [ 1410781.705550030106679, 4193937.701568160206079 ], [ 1410780.938359739957377, 4193936.654457250144333 ], [ 1410780.292986979940906, 4193935.768041300121695 ], [ 1410777.772391869919375, 4193932.331239129882306 ], [ 1410774.679020470008254, 4193928.122057510074228 ], [ 1410770.71347668999806, 4193922.964258070103824 ], [ 1410768.66331626009196, 4193920.289459459949285 ], [ 1410766.937138250097632, 4193918.050093249883503 ], [ 1410765.864108959911391, 4193916.650489539839327 ], [ 1410765.190225600032136, 4193915.766665739938617 ], [ 1410763.394067399902269, 4193913.270705259870738 ], [ 1410762.466181800002232, 4193911.974775710143149 ], [ 1410755.589979520067573, 4193902.418591550085694 ], [ 1410754.726890519959852, 4193901.304092110134661 ], [ 1410749.379884940106422, 4193894.443441709969193 ], [ 1410747.925852020038292, 4193892.509914789814502 ], [ 1410746.984229790046811, 4193891.097351599950343 ], [ 1410744.283512719906867, 4193887.074786460027099 ], [ 1410742.878725339891389, 4193885.37971056997776 ], [ 1410742.645587180042639, 4193885.091236480046064 ], [ 1410740.514431430026889, 4193881.743850539904088 ], [ 1410739.565810889936984, 4193879.916589950211346 ], [ 1410739.208134270040318, 4193879.255665840115398 ], [ 1410738.370963789988309, 4193877.889756320044398 ], [ 1410737.777428359957412, 4193876.339824540074915 ], [ 1410736.992094940040261, 4193873.789435320068151 ], [ 1410736.017555879894644, 4193870.860634900163859 ], [ 1410735.354039689991623, 4193868.906373329926282 ], [ 1410732.591051619965583, 4193860.580312519799918 ], [ 1410726.424505299888551, 4193842.321181490086019 ], [ 1410723.912017310038209, 4193834.924250020179898 ], [ 1410719.194833159912378, 4193822.275978299789131 ], [ 1410718.082406699890271, 4193819.567226720042527 ], [ 1410724.049125629942864, 4193817.699014930054545 ], [ 1410736.609274310059845, 4193815.651446289848536 ], [ 1410739.18558235000819, 4193815.28858608007431 ], [ 1410746.869094640016556, 4193814.163223950192332 ], [ 1410752.799268739996478, 4193813.789996279869229 ], [ 1410756.893421629909426, 4193812.921441390179098 ], [ 1410758.333199460059404, 4193813.048442579805851 ], [ 1410760.853782319929451, 4193813.276526220142841 ], [ 1410762.420561090111732, 4193813.41648666979745 ], [ 1410764.472017419990152, 4193813.599212669767439 ], [ 1410766.121735820081085, 4193813.750836410094053 ], [ 1410767.658708190079778, 4193813.889500820077956 ], [ 1410769.314906080020592, 4193814.038532699923962 ], [ 1410771.124023670097813, 4193814.282167399767786 ], [ 1410773.025152140064165, 4193814.533577760215849 ], [ 1410775.280069530010223, 4193814.831641579978168 ], [ 1410776.907756990054622, 4193815.049357830081135 ], [ 1410778.124634769978002, 4193815.211348969954997 ], [ 1410779.721219799946994, 4193815.423881470225751 ], [ 1410781.049547499977052, 4193815.596240079961717 ], [ 1410779.262461160076782, 4193808.202314670197666 ], [ 1410783.36246953997761, 4193807.030424799770117 ], [ 1410792.5687507300172, 4193804.459302070084959 ], [ 1410801.661307229893282, 4193801.876364099793136 ], [ 1410810.981317650061101, 4193799.27558331983164 ], [ 1410822.012273049913347, 4193796.165351159870625 ], [ 1410820.010307539952919, 4193784.409632599912584 ], [ 1410835.149550349917263, 4193779.755885109771043 ], [ 1410852.750865180045366, 4193774.348489449825138 ], [ 1410863.890674639958888, 4193770.844295809976757 ], [ 1410860.04722149996087, 4193760.032763769850135 ], [ 1410858.310596609953791, 4193754.849869689904153 ], [ 1410874.940093399956822, 4193750.696869649924338 ], [ 1410886.204312290064991, 4193747.874334909953177 ], [ 1410888.977601269958541, 4193747.177124820183963 ], [ 1410901.64401631988585, 4193744.012465090025216 ], [ 1410899.775237039895728, 4193739.132013849914074 ], [ 1410897.004330039955676, 4193723.053138080053031 ], [ 1410896.084220109973103, 4193717.664663179777563 ], [ 1410894.780515030026436, 4193710.008311760146171 ], [ 1410894.301020890008658, 4193707.224655310157686 ], [ 1410891.766182440100238, 4193704.334732320159674 ], [ 1410890.052963699912652, 4193702.370103280059993 ], [ 1410889.220977100078017, 4193701.421482889913023 ], [ 1410889.026587590109557, 4193701.208950529806316 ], [ 1410894.390391299966723, 4193701.317824370227754 ], [ 1410899.684312169905752, 4193701.849139700178057 ], [ 1410911.496661640005186, 4193703.038818220142275 ], [ 1410905.970819039968774, 4193710.731456330046058 ], [ 1410907.371766190044582, 4193718.097503520082682 ], [ 1410909.276782650034875, 4193728.122813859954476 ], [ 1410909.764052180107683, 4193730.719856610056013 ], [ 1410909.968808579957113, 4193731.813621260225773 ], [ 1410912.60213755001314, 4193743.018227680120617 ], [ 1410912.936487430008128, 4193744.430790800135583 ], [ 1410913.003875829977915, 4193744.752181210089475 ], [ 1410913.195410759886727, 4193745.261901920195669 ], [ 1410917.078277880093083, 4193755.523946939967573 ], [ 1410921.577958300011232, 4193767.569885029923171 ], [ 1410925.849342230008915, 4193778.476427969988436 ], [ 1410929.893204170046374, 4193789.305200830101967 ], [ 1410930.307901710039005, 4193790.17088190978393 ], [ 1410936.175306440098211, 4193800.165102549828589 ], [ 1410938.041444829897955, 4193802.943574619945139 ], [ 1410952.307038580067456, 4193827.90836367988959 ], [ 1410959.522770629962906, 4193839.976057820022106 ], [ 1410968.521703609963879, 4193855.402803319972008 ], [ 1410973.995712579926476, 4193865.479950610082597 ], [ 1410975.86185096995905, 4193868.839000840205699 ], [ 1410977.2303509300109, 4193871.617474060039967 ], [ 1410980.133234889945015, 4193877.050009740050882 ], [ 1410982.082310739904642, 4193880.782286509871483 ], [ 1410987.473377689952031, 4193890.942374099977314 ], [ 1410989.920096510089934, 4193895.794334469828755 ], [ 1411007.557181800017133, 4193929.799526379909366 ], [ 1411015.79273430001922, 4193945.447331219911575 ], [ 1411017.924619300058112, 4193949.539124540053308 ], [ 1411028.706753209931776, 4193966.20995926996693 ], [ 1411033.766056660097092, 4193974.338030709885061 ], [ 1411036.486136019928381, 4193978.871946109924465 ], [ 1411045.588743099942803, 4193992.204468389973044 ], [ 1411053.198441749904305, 4193993.448561020195484 ], [ 1411058.399092460051179, 4194009.089677980169654 ], [ 1411058.008930549956858, 4194018.102323790080845 ], [ 1411067.688315659994259, 4194033.390947999898344 ], [ 1411080.626878180075437, 4194047.407721399795264 ], [ 1411082.617422749986872, 4194049.895906670019031 ], [ 1411088.758749739965424, 4194050.490191970020533 ], [ 1411095.804815870011225, 4194056.779885469935834 ], [ 1411096.302449729992077, 4194062.917407779954374 ], [ 1411123.257789060007781, 4194088.462767019867897 ], [ 1411120.960008630063385, 4194089.741303440183401 ], [ 1411131.908020880073309, 4194100.751521059777588 ], [ 1411140.94842486991547, 4194109.003999819979072 ], [ 1411143.66090511996299, 4194107.704729040153325 ], [ 1411150.507200499996543, 4194114.602414980065078 ], [ 1411156.516521059907973, 4194120.47741207992658 ], [ 1411166.909570760093629, 4194130.399485410191119 ], [ 1411171.280740810092539, 4194134.607368529774249 ], [ 1411172.599997160024941, 4194135.546917350031435 ], [ 1411173.522699020104483, 4194136.216912960167974 ], [ 1411174.734393150079995, 4194137.096849060151726 ], [ 1411175.924056370044127, 4194137.775916089769453 ], [ 1411177.243312499951571, 4194138.524963379837573 ], [ 1411178.492588520050049, 4194139.237724679987878 ], [ 1411179.010960160056129, 4194139.531900740228593 ], [ 1411181.013171310070902, 4194140.441643199883401 ], [ 1411182.332427579909563, 4194141.042954519856721 ], [ 1411184.107850990025327, 4194141.422661900054663 ], [ 1411185.494495509890839, 4194141.71813385002315 ], [ 1411187.120887039927766, 4194142.014901639893651 ], [ 1411188.791340090101585, 4194142.307781729847193 ], [ 1411191.256197989918292, 4194142.40238454984501 ], [ 1411194.404010839993134, 4194142.612325040157884 ], [ 1411197.174708019942045, 4194142.793755149934441 ], [ 1411199.195062089944258, 4194142.928531860001385 ], [ 1411203.215035219909623, 4194142.047299790196121 ], [ 1411206.276020569959655, 4194141.372120529878885 ], [ 1411208.86917562992312, 4194140.799319609999657 ], [ 1411211.319778369972482, 4194140.262804820202291 ], [ 1411213.489164239959791, 4194139.788494620006531 ], [ 1411226.31342503009364, 4194137.003540929872543 ], [ 1411226.766266379971057, 4194138.338429410010576 ], [ 1411237.966841130051762, 4194135.484394050203264 ], [ 1411244.534611480077729, 4194133.629141380079091 ], [ 1411248.18394908006303, 4194132.836032569874078 ], [ 1411248.795627650106326, 4194134.458536189980805 ], [ 1411266.452810910064727, 4194133.527940620202571 ], [ 1411287.975605440093204, 4194132.657076799776405 ], [ 1411294.361949230078608, 4194132.449728589970618 ], [ 1411303.60970371006988, 4194132.159440650139004 ], [ 1411295.647511739982292, 4194144.351543259806931 ], [ 1411287.268146160058677, 4194143.438290109857917 ], [ 1411272.880618880037218, 4194142.44393613981083 ], [ 1411271.760935839964077, 4194142.485404870007187 ], [ 1411266.079583229962736, 4194142.526875880081207 ], [ 1411257.370935909915715, 4194143.563619169872254 ], [ 1411232.489090010058135, 4194146.839728530030698 ], [ 1411209.63925967994146, 4194149.452322269789875 ], [ 1411198.566840110113844, 4194150.364657099824399 ], [ 1411190.355830080108717, 4194150.945232979953289 ], [ 1411186.416202819906175, 4194151.028172720223665 ], [ 1411181.564243020024151, 4194150.074369159992784 ], [ 1411178.951649280032143, 4194151.276991929858923 ], [ 1411152.576892670011148, 4194162.349413780029863 ], [ 1411127.48769856011495, 4194173.255956150125712 ], [ 1411120.189022209960967, 4194176.366188310086727 ], [ 1411117.037321320036426, 4194177.610279810149223 ], [ 1411104.389050160069019, 4194180.181404820177704 ], [ 1411093.482506650034338, 4194182.296360140200704 ], [ 1411085.064149549929425, 4194184.038087780121714 ], [ 1411056.325618410017341, 4194189.719442680012435 ], [ 1411025.14037072006613, 4194197.557223900221288 ], [ 1410997.770339539973065, 4194204.358261819928885 ], [ 1410984.168263690080494, 4194207.675842190161347 ], [ 1410961.06962098996155, 4194213.523074280004948 ], [ 1410950.204549619928002, 4194216.011259550228715 ], [ 1410936.229243810055777, 4194219.536188120022416 ], [ 1410911.637688129907474, 4194225.715179159771651 ], [ 1410892.893362249946222, 4194230.110971549991518 ], [ 1410886.38261227007024, 4194231.686821990180761 ], [ 1410855.695005279965699, 4194239.192844260018319 ], [ 1410839.231518760090694, 4194243.215408979915082 ], [ 1410832.521, 4194244.723000000230968 ], [ 1410820.072494199965149, 4194247.984431319870055 ], [ 1410818.538110200082883, 4194248.357659 ], [ 1410817.00373076996766, 4194248.689415670000017 ], [ 1410814.3081995700486, 4194250.306737119797617 ], [ 1410803.23577544, 4194258.642155619803816 ], [ 1410796.890904929954559, 4194261.91826497996226 ], [ 1410791.914534379960969, 4194264.862614249810576 ], [ 1410779.515083570033312, 4194270.212210199795663 ], [ 1410769.479405019897968, 4194274.566533859819174 ], [ 1410754.633237669942901, 4194280.869935640133917 ], [ 1410753.057387219974771, 4194281.491982529871166 ], [ 1410731.866351640084758, 4194287.007455669809133 ], [ 1410721.042749, 4194289.744460159912705 ], [ 1410711.338827119907364, 4194289.661520420107991 ], [ 1410697.322052580071613, 4194293.518207939807326 ], [ 1410682.641764699947089, 4194299.697198969777673 ], [ 1410678.370380779961124, 4194301.438928890042007 ], [ 1410678.370380779961124, 4194303.55388648994267 ], [ 1410708.095908229937777, 4194391.25409073010087 ], [ 1410698.64069166011177, 4194394.190128710120916 ], [ 1410698.64069166011177, 4194394.190128710120916 ], [ 1410698.64069166011177, 4194394.190128710120916 ], [ 1410698.64069166011177, 4194394.190128710120916 ], [ 1410692.669048829935491, 4194397.839468020014465 ], [ 1410681.721049109939486, 4194400.825307659804821 ], [ 1410673.427084530005231, 4194403.81112908013165 ], [ 1410662.479084820020944, 4194407.792218229733407 ], [ 1410651.531048659933731, 4194411.773325599730015 ], [ 1410639.587799429893494, 4194416.417941760271788 ], [ 1410608.734335750108585, 4194427.365941479802132 ], [ 1410636.270228180103004, 4194508.314887809567153 ], [ 1410645.22769242990762, 4194534.523762670345604 ], [ 1410651.431618470000103, 4194554.180427920073271 ], [ 1410625.222743609920144, 4194541.905392419546843 ], [ 1410582.757725870003924, 4194556.502731439657509 ], [ 1410596.592030250001699, 4194600.120615850202739 ] ] ] } },
{ "type": "Feature", "properties": { "fid": 577, "GID": 1581.0, "TERRIT_P": "PT_OUEST", "GO_DESCRITION": "voie d'insertion", "GPOLE_SUIVI_OPE_AMENAGEMENT_EP_COMMUNES": "Eysines", "GPOLE_SUIVI_OPE_AMENAGEMENT_EP_LIBELLE_PROJET": "EYSIN-074...Voie d'insertion giratoire Mermoz/Route de Lacanau", "GPOLE_SUIVI_OPE_AMENAGEMENT_EP_STATUT_PROJET": "Conception", "GPOLE_SUIVI_OPE_AMENAGEMENT_EP_CHEF_DE_PROJET": "LEFEVRE Coralie", "GPOLE_SUIVI_OPE_AMENAGEMENT_EP_DESCRIPTION_PROJET": "Projet de shunt sur le giratoire de Mermoz avec voie d'entrecroisement sur la RD1215 (route de Lacanau) entre ce giratoire et la rocade dans le sens entrant vers Bordeaux.", "GPOLE_SUIVI_OPE_AMENAGEMENT_EP_TYPE_PROJET": "Amgt EspPublic _ Géné", "GPOLE_SUIVI_OPE_AMENAGEMENT_EP_PROG_FIN_PRINC_SAU": "CODEV", "GPOLE_SUIVI_OPE_AMENAGEMENT_EP_DEBUT_TRAVAUX": null, "GPOLE_SUIVI_OPE_AMENAGEMENT_EP_FIN_TRAVAUX": null }, "geometry": { "type": "MultiLineString", "coordinates": [ [ [ 1410872.129592800047249, 4192564.956546199973673 ], [ 1410870.802557009970769, 4192582.207956810016185 ], [ 1410866.489699800033122, 4192598.298215659800917 ], [ 1410864.499164340086281, 4192610.739144309889525 ], [ 1410864.665039259940386, 4192621.189519269857556 ], [ 1410866.655574719887227, 4192627.82468 ], [ 1410872.793110700091347, 4192634.12807722017169 ], [ 1410881.087057060096413, 4192635.786867409944534 ], [ 1410893.030342729995027, 4192630.810496860183775 ], [ 1410899.167878699954599, 4192625.834130870178342 ], [ 1410903.978360659908503, 4192612.066175539977849 ], [ 1410913.101699830032885, 4192589.672514909878373 ], [ 1410921.727414249908179, 4192568.605880959890783 ] ] ] } },
{ "type": "Feature", "properties": { "fid": 578, "GID": 1244.0, "TERRIT_P": "PT_OUEST", "GO_DESCRITION": "amgt general", "GPOLE_SUIVI_OPE_AMENAGEMENT_EP_COMMUNES": "Eysines", "GPOLE_SUIVI_OPE_AMENAGEMENT_EP_LIBELLE_PROJET": "EYSIN-073...Avenue du Haillan", "GPOLE_SUIVI_OPE_AMENAGEMENT_EP_STATUT_PROJET": "Conception", "GPOLE_SUIVI_OPE_AMENAGEMENT_EP_CHEF_DE_PROJET": "PIAGUET Emilie", "GPOLE_SUIVI_OPE_AMENAGEMENT_EP_DESCRIPTION_PROJET": "Requalification générale avec pose de collecteur, dans périmètre de protection", "GPOLE_SUIVI_OPE_AMENAGEMENT_EP_TYPE_PROJET": "Amgt EspPublic _ Géné", "GPOLE_SUIVI_OPE_AMENAGEMENT_EP_PROG_FIN_PRINC_SAU": "FIC", "GPOLE_SUIVI_OPE_AMENAGEMENT_EP_DEBUT_TRAVAUX": null, "GPOLE_SUIVI_OPE_AMENAGEMENT_EP_FIN_TRAVAUX": null }, "geometry": { "type": "MultiLineString", "coordinates": [ [ [ 1410637.54, 4193740.27 ], [ 1410665.08, 4193742.640000000130385 ], [ 1410677.46, 4193739.9 ], [ 1410686.81, 4193736.83 ], [ 1410716.84, 4193722.339999999850988 ], [ 1410738.15, 4193711.910000000149012 ], [ 1410756.92, 4193704.129999999888241 ], [ 1410789.02, 4193695.640000000130385 ], [ 1410837.32, 4193691.98 ], [ 1410879.82, 4193692.79 ], [ 1410900.55, 4193694.279999999795109 ], [ 1410957.19, 4193700.46 ], [ 1410998.65, 4193703.870000000111759 ], [ 1411031.370000000111759, 4193707.240000000223517 ], [ 1411049.82, 4193710.890000000130385 ], [ 1411088.694619979942217, 4193719.908978079911321 ], [ 1411144.23089833999984, 4193736.032413729932159 ], [ 1411206.79, 4193759.19 ], [ 1411225.21, 4193766.390000000130385 ], [ 1411230.8, 4193770.029999999795109 ], [ 1411230.8, 4193770.029999999795109 ] ] ] } },
{ "type": "Feature", "properties": { "fid": 582, "GID": 1922.0, "TERRIT_P": "PT_OUEST", "GO_DESCRITION": "amgt général", "GPOLE_SUIVI_OPE_AMENAGEMENT_EP_COMMUNES": "Eysines", "GPOLE_SUIVI_OPE_AMENAGEMENT_EP_LIBELLE_PROJET": "EYSIN-076...Rue Gilbert Cauderan", "GPOLE_SUIVI_OPE_AMENAGEMENT_EP_STATUT_PROJET": "A lancer", "GPOLE_SUIVI_OPE_AMENAGEMENT_EP_CHEF_DE_PROJET": "FALGERE Eric", "GPOLE_SUIVI_OPE_AMENAGEMENT_EP_DESCRIPTION_PROJET": "Reprise partielle de la rue Gilbert Cauderan suite à la requalification du magasin Lidl", "GPOLE_SUIVI_OPE_AMENAGEMENT_EP_TYPE_PROJET": "Amgt EspPublic _ Géné", "GPOLE_SUIVI_OPE_AMENAGEMENT_EP_PROG_FIN_PRINC_SAU": "FIC", "GPOLE_SUIVI_OPE_AMENAGEMENT_EP_DEBUT_TRAVAUX": null, "GPOLE_SUIVI_OPE_AMENAGEMENT_EP_FIN_TRAVAUX": null }, "geometry": { "type": "MultiLineString", "coordinates": [ [ [ 1413180.946010420098901, 4193449.399201950058341 ], [ 1413153.54, 4193403.529999999795109 ], [ 1413149.359999999869615, 4193401.71 ], [ 1413144.02, 4193402.870000000111759 ], [ 1413123.859999999869615, 4193416.680000000167638 ], [ 1413110.829870450077578, 4193425.235021090134978 ] ] ] } },
{ "type": "Feature", "properties": { "fid": 583, "GID": 1923.0, "TERRIT_P": "PT_OUEST", "GO_DESCRITION": "amgt général", "GPOLE_SUIVI_OPE_AMENAGEMENT_EP_COMMUNES": "Eysines", "GPOLE_SUIVI_OPE_AMENAGEMENT_EP_LIBELLE_PROJET": "EYSIN-076...Rue Gilbert Cauderan", "GPOLE_SUIVI_OPE_AMENAGEMENT_EP_STATUT_PROJET": "A lancer", "GPOLE_SUIVI_OPE_AMENAGEMENT_EP_CHEF_DE_PROJET": "FALGERE Eric", "GPOLE_SUIVI_OPE_AMENAGEMENT_EP_DESCRIPTION_PROJET": "Reprise partielle de la rue Gilbert Cauderan suite à la requalification du magasin Lidl", "GPOLE_SUIVI_OPE_AMENAGEMENT_EP_TYPE_PROJET": "Amgt EspPublic _ Géné", "GPOLE_SUIVI_OPE_AMENAGEMENT_EP_PROG_FIN_PRINC_SAU": "FIC", "GPOLE_SUIVI_OPE_AMENAGEMENT_EP_DEBUT_TRAVAUX": null, "GPOLE_SUIVI_OPE_AMENAGEMENT_EP_FIN_TRAVAUX": null }, "geometry": { "type": "MultiLineString", "coordinates": [ [ [ 1413180.946010420098901, 4193449.399201950058341 ], [ 1413153.54, 4193403.529999999795109 ], [ 1413149.359999999869615, 4193401.71 ], [ 1413144.02, 4193402.870000000111759 ], [ 1413109.953146169893444, 4193425.775451919995248 ] ] ] } }
]
}
