{
  "type": "FeatureCollection",
  "features": [
    {
      "type": "Feature",
      "properties": {
        "description": "Bandes cyclables étroites, pas de sas Vélo Etudier la possibilité d’améliorer"
      },
      "geometry": {
        "coordinates": [
          [
            [
              -0.6528552707832205,
              44.88135291045907
            ],
            [
              -0.6540040499301938,
              44.88192140881503
            ],
            [
              -0.6542812163947929,
              44.88167222946444
            ],
            [
              -0.652726437254671,
              44.88105584354335
            ],
            [
              -0.6525457285119387,
              44.88129115561631
            ],
            [
              -0.6527956546941311,
              44.8814239468318
            ],
            [
              -0.6528552707832205,
              44.88135291045907
            ]
          ]
        ],
        "type": "Polygon"
      }
    },
    {
      "type": "Feature",
      "properties": {
        "description": "Pistes cyclables en mauvais état (yc la Signa) à rénover"
      },
      "geometry": {
        "coordinates": [
          [
            [
              -0.6545816650607037,
              44.88190428531851
            ],
            [
              -0.6570730821671305,
              44.87799666475101
            ],
            [
              -0.6567720777563864,
              44.87765353859649
            ],
            [
              -0.6543022631985878,
              44.88171334697941
            ],
            [
              -0.6545816650607037,
              44.88190428531851
            ]
          ]
        ],
        "type": "Polygon"
      }
    },
    {
      "type": "Feature",
      "properties": {
        "description": "Signalisation incohérente sur la traversée et effacée : rénover la Signa"
      },
      "geometry": {
        "coordinates": [
          [
            [
              -0.6610996119675008,
              44.879327809811144
            ],
            [
              -0.6610682397957248,
              44.87930705939968
            ],
            [
              -0.6610096734869444,
              44.879330773553164
            ],
            [
              -0.660942740561552,
              44.87926555960678
            ],
            [
              -0.6609134574071334,
              44.879268523878494
            ],
            [
              -0.6608193329814753,
              44.87932780928466
            ],
            [
              -0.6606289924760347,
              44.87934411276041
            ],
            [
              -0.6605495096279697,
              44.87928630950668
            ],
            [
              -0.6603800856617852,
              44.879142542188305
            ],
            [
              -0.6603449077262837,
              44.87915407088764
            ],
            [
              -0.6603895310670396,
              44.879209049506784
            ],
            [
              -0.6605491563672388,
              44.87934957443176
            ],
            [
              -0.6606038899923874,
              44.87937672022508
            ],
            [
              -0.6608193303439691,
              44.879354488223896
            ],
            [
              -0.6609192180461889,
              44.87930556718271
            ],
            [
              -0.6609374863341628,
              44.87931221026297
            ],
            [
              -0.6609806585082438,
              44.87935634883923
            ],
            [
              -0.6610094299770992,
              44.8793633810254
            ],
            [
              -0.6610996119675008,
              44.879327809811144
            ]
          ]
        ],
        "type": "Polygon"
      }
    },
    {
      "type": "Feature",
      "properties": {
        "description": "Connexion à la piste Bx Lacanau médiocre : Aménager en Zone 20, déplacer la benne à verre. "
      },
      "geometry": {
        "coordinates": [
          [
            [
              -0.6485907680578578,
              44.89052480645938
            ],
            [
              -0.6486376205870386,
              44.89033912753729
            ],
            [
              -0.6476691029413928,
              44.89031990539726
            ],
            [
              -0.6476422909075552,
              44.89030087234593
            ],
            [
              -0.6480673893811968,
              44.889412536160535
            ],
            [
              -0.6478038408958753,
              44.88934635397604
            ],
            [
              -0.6474481521420614,
              44.89036713199357
            ],
            [
              -0.6476341664893823,
              44.89043939989958
            ],
            [
              -0.6484465080967823,
              44.89045395544173
            ],
            [
              -0.6484328882630734,
              44.89054496579777
            ],
            [
              -0.6485907680578578,
              44.89052480645938
            ]
          ]
        ],
        "type": "Polygon"
      }
    },
    {
      "type": "Feature",
      "properties": {
        "description": "Projet PTOuest sur un prochain CODEV : Bandes cyclables régulièrement interrompues au droit des Zébras, file de TàG, …et stationnement fréquent sur les BC . Attention axe accidentogène. Prévoir une étude avant trvx pour des amélioration possibles ?"
      },
      "geometry": {
        "coordinates": [
          [
            [
              -0.6284725976834693,
              44.88108738779991
            ],
            [
              -0.6298848728880841,
              44.88210554565643
            ],
            [
              -0.6314553420718596,
              44.88315403249524
            ],
            [
              -0.6385495454242687,
              44.88594881727522
            ],
            [
              -0.638631680976232,
              44.88579817517186
            ],
            [
              -0.6344565289339528,
              44.88418592891671
            ],
            [
              -0.6315056070875471,
              44.88294389377495
            ],
            [
              -0.6286131233504193,
              44.880981183670315
            ],
            [
              -0.6284725976834693,
              44.88108738779991
            ]
          ]
        ],
        "type": "Polygon"
      }
    },
    {
      "type": "Feature",
      "properties": {
        "description": "Zone 30 avec aucun sas Vélo aux feux faire des marquages ?"
      },
      "geometry": {
        "coordinates": [
          [
            [
              -0.6523959714279499,
              44.88141580637796
            ],
            [
              -0.6520843766195128,
              44.88226121343715
            ],
            [
              -0.6519549837102261,
              44.88256765879953
            ],
            [
              -0.6517065425939279,
              44.88306990625475
            ],
            [
              -0.651414734885094,
              44.88370996285515
            ],
            [
              -0.6512338698479141,
              44.88440456336912
            ],
            [
              -0.6509516525697734,
              44.884953864449955
            ],
            [
              -0.6507990342840912,
              44.88559813824429
            ],
            [
              -0.6506381153029679,
              44.885899465466025
            ],
            [
              -0.6502055690818622,
              44.886553525275275
            ],
            [
              -0.649949008595371,
              44.88688864272379
            ],
            [
              -0.6479821541472575,
              44.889041884965906
            ],
            [
              -0.6478749734304188,
              44.889297259794205
            ],
            [
              -0.6481323905593683,
              44.88933528293873
            ],
            [
              -0.6482079147421302,
              44.889154964177266
            ],
            [
              -0.6483937444313028,
              44.88890946788149
            ],
            [
              -0.6485987008989582,
              44.888690381305395
            ],
            [
              -0.6488185326573159,
              44.88842928466971
            ],
            [
              -0.6491676754100695,
              44.88804139427833
            ],
            [
              -0.6494456543571516,
              44.88774894741269
            ],
            [
              -0.6498539059970483,
              44.88732681956543
            ],
            [
              -0.6501125305490518,
              44.8869983309113
            ],
            [
              -0.6507307757383387,
              44.886277372593185
            ],
            [
              -0.6508741132055036,
              44.88603508682192
            ],
            [
              -0.6510293654132226,
              44.88571080428821
            ],
            [
              -0.6514096284333561,
              44.88451208956573
            ],
            [
              -0.6514611435334245,
              44.884379536686225
            ],
            [
              -0.6523237244871609,
              44.88257434199713
            ],
            [
              -0.6524380471591371,
              44.88232699093737
            ],
            [
              -0.6528506207988869,
              44.881548381316634
            ],
            [
              -0.6523959714279499,
              44.88141580637796
            ]
          ]
        ],
        "type": "Polygon"
      }
    },
    {
      "type": "Feature",
      "properties": {
        "description": "Piste cyclable en mauvais état (revêtement, végétation horizontale envahissante) à rénover et à entretenir"
      },
      "geometry": {
        "coordinates": [
          [
            [
              -0.6530593419949469,
              44.87647959028507
            ],
            [
              -0.6521361658311946,
              44.876267303089776
            ],
            [
              -0.6519466396042048,
              44.87624130868829
            ],
            [
              -0.6518916158602792,
              44.87620664946755
            ],
            [
              -0.65184881961531,
              44.87571275330117
            ],
            [
              -0.6517693408744094,
              44.87560010972257
            ],
            [
              -0.65161649714247,
              44.87497190110432
            ],
            [
              -0.6510374167293662,
              44.87333686674691
            ],
            [
              -0.650929175280055,
              44.873347578627346
            ],
            [
              -0.6511932534079392,
              44.87397309679949
            ],
            [
              -0.6517358797306088,
              44.87563427602538
            ],
            [
              -0.6517901423596015,
              44.875718871830856
            ],
            [
              -0.6518009948848942,
              44.87577783246982
            ],
            [
              -0.6518501835112431,
              44.87626636763048
            ],
            [
              -0.6519731788029617,
              44.87630481986213
            ],
            [
              -0.6530294913157775,
              44.87651758841329
            ],
            [
              -0.6530593419949469,
              44.87647959028507
            ]
          ]
        ],
        "type": "Polygon"
      }
    },
    {
      "type": "Feature",
      "properties": {
        "description": "mauvais état (revêtement en mauvais état, flash (retenue d’eau), végétation horizontale envahissante, Signa horizontale effacée) à rénover et à entretenir, entrée de la voie verte entravée par les barrières"
      },
      "geometry": {
        "coordinates": [
          [
            [
              -0.6604590384440598,
              44.879114647462785
            ],
            [
              -0.6604651787702949,
              44.87901760346796
            ],
            [
              -0.6605427547922034,
              44.878691892258985
            ],
            [
              -0.6606806427109859,
              44.878264112000295
            ],
            [
              -0.6606768159126801,
              44.87817054393332
            ],
            [
              -0.6606289159031178,
              44.87807639752401
            ],
            [
              -0.6599682680565593,
              44.87782345871946
            ],
            [
              -0.6591477173117255,
              44.877683739958854
            ],
            [
              -0.6587992282441917,
              44.87755667718673
            ],
            [
              -0.6581041961645724,
              44.87730690953691
            ],
            [
              -0.6579156022912116,
              44.87726391126739
            ],
            [
              -0.6577594947768546,
              44.877405355899185
            ],
            [
              -0.6581368273548378,
              44.87755655867474
            ],
            [
              -0.658910801277699,
              44.87782984853209
            ],
            [
              -0.6598613786057115,
              44.87805095346437
            ],
            [
              -0.6603931097193652,
              44.87816108021923
            ],
            [
              -0.6604497508953671,
              44.878233186838145
            ],
            [
              -0.6604431713638235,
              44.878320825402994
            ],
            [
              -0.6603740439776971,
              44.87860769024219
            ],
            [
              -0.660274304670537,
              44.87885523886234
            ],
            [
              -0.6602497549606312,
              44.87902996593803
            ],
            [
              -0.660246262146245,
              44.87914474517706
            ],
            [
              -0.6604590384440598,
              44.879114647462785
            ]
          ]
        ],
        "type": "Polygon"
      }
    },
    {
      "type": "Feature",
      "properties": {
        "description": "retenue d'eau et végétation dépassant  sur la voie (arbuste et potentielle ronce)"
      },
      "geometry": {
        "coordinates": [
          [
            [
              -0.6688795120768134,
              44.87803364490992
            ],
            [
              -0.6688672434388252,
              44.877894545769635
            ],
            [
              -0.6674318126537173,
              44.87784238351355
            ],
            [
              -0.665143711446234,
              44.87767720270466
            ],
            [
              -0.6646100256422756,
              44.87774675257697
            ],
            [
              -0.6648063238691861,
              44.87784238351355
            ],
            [
              -0.665315472394866,
              44.87778152748126
            ],
            [
              -0.667842812066425,
              44.87799017646637
            ],
            [
              -0.6688795120768134,
              44.87803364490992
            ]
          ]
        ],
        "type": "Polygon"
      }
    }
  ]
}
